<?xml version="1.0" encoding="UTF-8"?>
<gpx creator="StravaGPX" version="1.1" xmlns="http://www.topografix.com/GPX/1/1" xmlns:xsi="http://www.w3.org/2001/XMLSchema-instance" xsi:schemaLocation="http://www.topografix.com/GPX/1/1 http://www.topografix.com/GPX/1/1/gpx.xsd">
 <metadata>
  <name>Bolivar, MO - 23mi Country Days Ride (Official)</name>
  <desc>This is the proposed loop for the shorter Country Days ride. All pavement, no gravel.</desc>
  <author>
   <name>Kyndle Katzer</name>
   <link href="https://www.strava.com/athletes/10134001"/>
  </author>
  <copyright author="OpenStreetMap contributors">
   <year>2020</year>
   <license>https://www.openstreetmap.org/copyright</license>
  </copyright>
  <link href="https://www.strava.com/routes/3249544331489390312"/>
 </metadata>
 <trk>
  <name>Bolivar, MO - 23mi Country Days Ride (Official)</name>
  <desc>This is the proposed loop for the shorter Country Days ride. All pavement, no gravel.</desc>
  <link href="https://www.strava.com/routes/3249544331489390312"/>
  <type>cycling</type>
  <trkseg>
   <trkpt lat="37.6159" lon="-93.41163">
    <ele>325.49</ele>
   </trkpt>
   <trkpt lat="37.61636" lon="-93.41185">
    <ele>326.67</ele>
   </trkpt>
   <trkpt lat="37.616640000000004" lon="-93.41098000000001">
    <ele>325.12</ele>
   </trkpt>
   <trkpt lat="37.61695000408672" lon="-93.40999000428255">
    <ele>322.54</ele>
   </trkpt>
   <trkpt lat="37.61726" lon="-93.409">
    <ele>319.57</ele>
   </trkpt>
   <trkpt lat="37.617445001631964" lon="-93.40839000131338">
    <ele>318.37000000000006</ele>
   </trkpt>
   <trkpt lat="37.617630000000005" lon="-93.40778">
    <ele>318.20000000000005</ele>
   </trkpt>
   <trkpt lat="37.61766" lon="-93.40757">
    <ele>318.26000000000005</ele>
   </trkpt>
   <trkpt lat="37.61766" lon="-93.40758000000001">
    <ele>318.26000000000005</ele>
   </trkpt>
   <trkpt lat="37.61769" lon="-93.40745000000001">
    <ele>318.29</ele>
   </trkpt>
   <trkpt lat="37.618540000003044" lon="-93.40744750008577">
    <ele>320.07</ele>
   </trkpt>
   <trkpt lat="37.619390000006014" lon="-93.40744500011434">
    <ele>323.33</ele>
   </trkpt>
   <trkpt lat="37.62024000000894" lon="-93.40744250008575">
    <ele>326.35</ele>
   </trkpt>
   <trkpt lat="37.62109" lon="-93.40744000000001">
    <ele>328.75000000000006</ele>
   </trkpt>
   <trkpt lat="37.62177666663232" lon="-93.40742000037058">
    <ele>328.11</ele>
   </trkpt>
   <trkpt lat="37.62246333326126" lon="-93.40740000037168">
    <ele>325.97</ele>
   </trkpt>
   <trkpt lat="37.62315" lon="-93.40738">
    <ele>324.01</ele>
   </trkpt>
   <trkpt lat="37.6238725000286" lon="-93.40736250050966">
    <ele>322.56</ele>
   </trkpt>
   <trkpt lat="37.62459500005462" lon="-93.40734500067919">
    <ele>322.12</ele>
   </trkpt>
   <trkpt lat="37.62531750007804" lon="-93.4073275005085">
    <ele>322.40000000000003</ele>
   </trkpt>
   <trkpt lat="37.62604" lon="-93.40731000000001">
    <ele>322.32000000000005</ele>
   </trkpt>
   <trkpt lat="37.62673" lon="-93.40733">
    <ele>321.86</ele>
   </trkpt>
   <trkpt lat="37.62755999985902" lon="-93.40731000022679">
    <ele>320.33</ele>
   </trkpt>
   <trkpt lat="37.62839" lon="-93.40729">
    <ele>320.06</ele>
   </trkpt>
   <trkpt lat="37.62906666667412" lon="-93.40725666727376">
    <ele>319.36</ele>
   </trkpt>
   <trkpt lat="37.62974333333887" lon="-93.40722333394052">
    <ele>317.71999999999997</ele>
   </trkpt>
   <trkpt lat="37.63042" lon="-93.40719000000001">
    <ele>314.63</ele>
   </trkpt>
   <trkpt lat="37.63122750002773" lon="-93.40717500048852">
    <ele>312.63</ele>
   </trkpt>
   <trkpt lat="37.63203500005354" lon="-93.40716000065105">
    <ele>312.63</ele>
   </trkpt>
   <trkpt lat="37.63284250007747" lon="-93.40714500048762">
    <ele>315.11</ele>
   </trkpt>
   <trkpt lat="37.63365" lon="-93.40713000000001">
    <ele>316.46000000000004</ele>
   </trkpt>
   <trkpt lat="37.633660000000006" lon="-93.40713000000001">
    <ele>316.47</ele>
   </trkpt>
   <trkpt lat="37.633700000000005" lon="-93.40690000000001">
    <ele>316.81</ele>
   </trkpt>
   <trkpt lat="37.633685004920686" lon="-93.40581999968349">
    <ele>318.35</ele>
   </trkpt>
   <trkpt lat="37.63367" lon="-93.40474">
    <ele>318.31000000000006</ele>
   </trkpt>
   <trkpt lat="37.633655003305314" lon="-93.40385499983356">
    <ele>316.77000000000004</ele>
   </trkpt>
   <trkpt lat="37.63364" lon="-93.40297000000001">
    <ele>314.90000000000003</ele>
   </trkpt>
   <trkpt lat="37.633626705558555" lon="-93.40189666513176">
    <ele>312.8</ele>
   </trkpt>
   <trkpt lat="37.63361340139412" lon="-93.40082333064767">
    <ele>311.5</ele>
   </trkpt>
   <trkpt lat="37.63360008750672" lon="-93.39974999654808">
    <ele>312.05000000000007</ele>
   </trkpt>
   <trkpt lat="37.633586763896375" lon="-93.39867666283325">
    <ele>313.8</ele>
   </trkpt>
   <trkpt lat="37.63357343056307" lon="-93.39760332950344">
    <ele>314.3</ele>
   </trkpt>
   <trkpt lat="37.633560087506815" lon="-93.39652999655897">
    <ele>313.89</ele>
   </trkpt>
   <trkpt lat="37.63354673472764" lon="-93.39545666400004">
    <ele>313.57</ele>
   </trkpt>
   <trkpt lat="37.63353337222552" lon="-93.39438333182704">
    <ele>311.96000000000004</ele>
   </trkpt>
   <trkpt lat="37.633520000000004" lon="-93.39331000000001">
    <ele>309.02000000000004</ele>
   </trkpt>
   <trkpt lat="37.63349001042589" lon="-93.39240249890094">
    <ele>306.92</ele>
   </trkpt>
   <trkpt lat="37.63346001390117" lon="-93.39149499853443">
    <ele>306.17</ele>
   </trkpt>
   <trkpt lat="37.63343001042587" lon="-93.39058749890067">
    <ele>305.36</ele>
   </trkpt>
   <trkpt lat="37.6334" lon="-93.38968000000001">
    <ele>302.84</ele>
   </trkpt>
   <trkpt lat="37.63338001616515" lon="-93.38854999909518">
    <ele>293.11</ele>
   </trkpt>
   <trkpt lat="37.63336002155361" lon="-93.38741999879825">
    <ele>288.35</ele>
   </trkpt>
   <trkpt lat="37.6333400161654" lon="-93.38628999910958">
    <ele>287.90999999999997</ele>
   </trkpt>
   <trkpt lat="37.633320000000005" lon="-93.38516000000001">
    <ele>289.2</ele>
   </trkpt>
   <trkpt lat="37.63328667516205" lon="-93.38415666574572">
    <ele>289.86</ele>
   </trkpt>
   <trkpt lat="37.633253341828016" lon="-93.3831533323914">
    <ele>293.78000000000003</ele>
   </trkpt>
   <trkpt lat="37.63322" lon="-93.38215000000001">
    <ele>300.03000000000003</ele>
   </trkpt>
   <trkpt lat="37.63319801903739" lon="-93.38108799874452">
    <ele>302.6</ele>
   </trkpt>
   <trkpt lat="37.633176028556086" lon="-93.38002599811745">
    <ele>304.35</ele>
   </trkpt>
   <trkpt lat="37.63315402855612" lon="-93.37896399811905">
    <ele>305.13</ele>
   </trkpt>
   <trkpt lat="37.633132019037475" lon="-93.37790199874959">
    <ele>304.31</ele>
   </trkpt>
   <trkpt lat="37.63311" lon="-93.37684">
    <ele>304.92</ele>
   </trkpt>
   <trkpt lat="37.63311" lon="-93.37620000000001">
    <ele>306.13</ele>
   </trkpt>
   <trkpt lat="37.63318" lon="-93.37608">
    <ele>306.26000000000005</ele>
   </trkpt>
   <trkpt lat="37.633190000000006" lon="-93.37608">
    <ele>306.27000000000004</ele>
   </trkpt>
   <trkpt lat="37.633250000000004" lon="-93.37601000000001">
    <ele>306.50000000000006</ele>
   </trkpt>
   <trkpt lat="37.633370000000006" lon="-93.37599">
    <ele>306.50000000000006</ele>
   </trkpt>
   <trkpt lat="37.63420750002261" lon="-93.37595250126776">
    <ele>306.82000000000005</ele>
   </trkpt>
   <trkpt lat="37.63504500003336" lon="-93.37591500169022">
    <ele>305.82000000000005</ele>
   </trkpt>
   <trkpt lat="37.63588250003224" lon="-93.37587750126735">
    <ele>303.55</ele>
   </trkpt>
   <trkpt lat="37.636720000000004" lon="-93.37584000000001">
    <ele>302.02</ele>
   </trkpt>
   <trkpt lat="37.6366575108312" lon="-93.37491499765129">
    <ele>302.43</ele>
   </trkpt>
   <trkpt lat="37.63659501444093" lon="-93.37398999685857">
    <ele>303.02</ele>
   </trkpt>
   <trkpt lat="37.6365325108292" lon="-93.37306499762198">
    <ele>304.9</ele>
   </trkpt>
   <trkpt lat="37.63647" lon="-93.37214">
    <ele>308.51</ele>
   </trkpt>
   <trkpt lat="37.63644" lon="-93.37148">
    <ele>310.1</ele>
   </trkpt>
   <trkpt lat="37.63643401428731" lon="-93.3705599997253">
    <ele>311.48</ele>
   </trkpt>
   <trkpt lat="37.63642802143102" lon="-93.36963999959892">
    <ele>312.73</ele>
   </trkpt>
   <trkpt lat="37.63642202143117" lon="-93.36871999962102">
    <ele>312.66</ele>
   </trkpt>
   <trkpt lat="37.636416014287725" lon="-93.3677999997918">
    <ele>311.32000000000005</ele>
   </trkpt>
   <trkpt lat="37.636410000000005" lon="-93.36688000000001">
    <ele>310.0</ele>
   </trkpt>
   <trkpt lat="37.636430000000004" lon="-93.36663">
    <ele>309.75</ele>
   </trkpt>
   <trkpt lat="37.6366550032364" lon="-93.36576000247099">
    <ele>309.58000000000004</ele>
   </trkpt>
   <trkpt lat="37.636880000000005" lon="-93.36489">
    <ele>308.82000000000005</ele>
   </trkpt>
   <trkpt lat="37.63703" lon="-93.36449">
    <ele>307.20000000000005</ele>
   </trkpt>
   <trkpt lat="37.63712" lon="-93.36431">
    <ele>307.20000000000005</ele>
   </trkpt>
   <trkpt lat="37.63747" lon="-93.36393000000001">
    <ele>305.37</ele>
   </trkpt>
   <trkpt lat="37.63774" lon="-93.3636">
    <ele>305.05</ele>
   </trkpt>
   <trkpt lat="37.63816500115037" lon="-93.36306000319082">
    <ele>305.00000000000006</ele>
   </trkpt>
   <trkpt lat="37.63859" lon="-93.36252">
    <ele>304.47</ele>
   </trkpt>
   <trkpt lat="37.63879" lon="-93.3622">
    <ele>303.20000000000005</ele>
   </trkpt>
   <trkpt lat="37.639280003203005" lon="-93.36133000572231">
    <ele>300.84000000000003</ele>
   </trkpt>
   <trkpt lat="37.639770000000006" lon="-93.36046">
    <ele>300.63</ele>
   </trkpt>
   <trkpt lat="37.639880000000005" lon="-93.36023">
    <ele>300.75</ele>
   </trkpt>
   <trkpt lat="37.63991" lon="-93.36005">
    <ele>300.64</ele>
   </trkpt>
   <trkpt lat="37.6398900052686" lon="-93.3592599996165">
    <ele>299.71000000000004</ele>
   </trkpt>
   <trkpt lat="37.63987000526966" lon="-93.35846999965827">
    <ele>298.38000000000005</ele>
   </trkpt>
   <trkpt lat="37.63985" lon="-93.35768">
    <ele>296.81</ele>
   </trkpt>
   <trkpt lat="37.639900000000004" lon="-93.35751">
    <ele>296.16</ele>
   </trkpt>
   <trkpt lat="37.639900000000004" lon="-93.3575">
    <ele>296.13</ele>
   </trkpt>
   <trkpt lat="37.639990000000004" lon="-93.35746">
    <ele>295.50000000000006</ele>
   </trkpt>
   <trkpt lat="37.64022000000001" lon="-93.35741">
    <ele>294.16</ele>
   </trkpt>
   <trkpt lat="37.64091666665238" lon="-93.3573800005636">
    <ele>291.89000000000004</ele>
   </trkpt>
   <trkpt lat="37.64161333329715" lon="-93.35735000056455">
    <ele>291.06000000000006</ele>
   </trkpt>
   <trkpt lat="37.64231" lon="-93.35732">
    <ele>288.84000000000003</ele>
   </trkpt>
   <trkpt lat="37.64316999999088" lon="-93.35729000104267">
    <ele>284.6</ele>
   </trkpt>
   <trkpt lat="37.64402999997417" lon="-93.35726000139074">
    <ele>284.78000000000003</ele>
   </trkpt>
   <trkpt lat="37.64488999994986" lon="-93.35723000104416">
    <ele>288.01000000000005</ele>
   </trkpt>
   <trkpt lat="37.64575" lon="-93.3572">
    <ele>293.09000000000003</ele>
   </trkpt>
   <trkpt lat="37.64589" lon="-93.35716000000001">
    <ele>292.76</ele>
   </trkpt>
   <trkpt lat="37.645950000000006" lon="-93.35712000000001">
    <ele>292.57</ele>
   </trkpt>
   <trkpt lat="37.64603" lon="-93.35701">
    <ele>291.51000000000005</ele>
   </trkpt>
   <trkpt lat="37.646080000000005" lon="-93.35685000000001">
    <ele>291.13</ele>
   </trkpt>
   <trkpt lat="37.64613000000001" lon="-93.3562">
    <ele>289.74</ele>
   </trkpt>
   <trkpt lat="37.64618" lon="-93.35584">
    <ele>288.1</ele>
   </trkpt>
   <trkpt lat="37.646240000000006" lon="-93.35562">
    <ele>288.1</ele>
   </trkpt>
   <trkpt lat="37.646570000000004" lon="-93.35468">
    <ele>282.34000000000003</ele>
   </trkpt>
   <trkpt lat="37.64676" lon="-93.35424">
    <ele>280.44</ele>
   </trkpt>
   <trkpt lat="37.647025001081616" lon="-93.35375000162198">
    <ele>279.28000000000003</ele>
   </trkpt>
   <trkpt lat="37.647290000000005" lon="-93.35326">
    <ele>278.41</ele>
   </trkpt>
   <trkpt lat="37.64768" lon="-93.35231">
    <ele>278.68</ele>
   </trkpt>
   <trkpt lat="37.647780000000004" lon="-93.35210000000001">
    <ele>278.89000000000004</ele>
   </trkpt>
   <trkpt lat="37.64802" lon="-93.35188000000001">
    <ele>279.73</ele>
   </trkpt>
   <trkpt lat="37.64822" lon="-93.35183">
    <ele>280.08</ele>
   </trkpt>
   <trkpt lat="37.649080000000005" lon="-93.35175000000001">
    <ele>280.89000000000004</ele>
   </trkpt>
   <trkpt lat="37.649170000000005" lon="-93.35177">
    <ele>280.79</ele>
   </trkpt>
   <trkpt lat="37.64927" lon="-93.35164">
    <ele>280.55</ele>
   </trkpt>
   <trkpt lat="37.64949" lon="-93.35119">
    <ele>279.18</ele>
   </trkpt>
   <trkpt lat="37.649947505889344" lon="-93.35050751262588">
    <ele>278.40000000000003</ele>
   </trkpt>
   <trkpt lat="37.65040500784692" lon="-93.349825016843">
    <ele>278.45000000000005</ele>
   </trkpt>
   <trkpt lat="37.6508625058726" lon="-93.34914251265118">
    <ele>279.53</ele>
   </trkpt>
   <trkpt lat="37.651320000000005" lon="-93.34846">
    <ele>281.63000000000005</ele>
   </trkpt>
   <trkpt lat="37.65158" lon="-93.3481">
    <ele>282.71000000000004</ele>
   </trkpt>
   <trkpt lat="37.65216" lon="-93.34740000000001">
    <ele>289.79</ele>
   </trkpt>
   <trkpt lat="37.65223" lon="-93.34736000000001">
    <ele>289.79</ele>
   </trkpt>
   <trkpt lat="37.65222" lon="-93.34736000000001">
    <ele>289.76</ele>
   </trkpt>
   <trkpt lat="37.65238" lon="-93.34727000000001">
    <ele>291.51000000000005</ele>
   </trkpt>
   <trkpt lat="37.6525" lon="-93.34725">
    <ele>292.68000000000006</ele>
   </trkpt>
   <trkpt lat="37.652620000000006" lon="-93.34726">
    <ele>293.37</ele>
   </trkpt>
   <trkpt lat="37.65323500033539" lon="-93.34746499835488">
    <ele>297.02</ele>
   </trkpt>
   <trkpt lat="37.653850000000006" lon="-93.34767000000001">
    <ele>298.54</ele>
   </trkpt>
   <trkpt lat="37.65404" lon="-93.3477">
    <ele>299.35</ele>
   </trkpt>
   <trkpt lat="37.654931250035695" lon="-93.34766500294086">
    <ele>304.12</ele>
   </trkpt>
   <trkpt lat="37.65582250006105" lon="-93.34763000504158">
    <ele>307.08000000000004</ele>
   </trkpt>
   <trkpt lat="37.65671375007606" lon="-93.3475950063021">
    <ele>307.66</ele>
   </trkpt>
   <trkpt lat="37.65760500008074" lon="-93.34756000672239">
    <ele>308.51</ele>
   </trkpt>
   <trkpt lat="37.658496250075075" lon="-93.34752500630238">
    <ele>309.67</ele>
   </trkpt>
   <trkpt lat="37.659387500059076" lon="-93.34749000504203">
    <ele>307.98</ele>
   </trkpt>
   <trkpt lat="37.66027875003273" lon="-93.34745500294133">
    <ele>304.87</ele>
   </trkpt>
   <trkpt lat="37.661170000000006" lon="-93.34742000000001">
    <ele>301.02</ele>
   </trkpt>
   <trkpt lat="37.66123" lon="-93.34702">
    <ele>300.81</ele>
   </trkpt>
   <trkpt lat="37.661200003157965" lon="-93.34615499964333">
    <ele>302.83000000000004</ele>
   </trkpt>
   <trkpt lat="37.661170000000006" lon="-93.34529">
    <ele>304.45</ele>
   </trkpt>
   <trkpt lat="37.66115000997329" lon="-93.34440249925431">
    <ele>306.43</ele>
   </trkpt>
   <trkpt lat="37.661130013297296" lon="-93.34351499898665">
    <ele>310.82000000000005</ele>
   </trkpt>
   <trkpt lat="37.661110009972006" lon="-93.34262749919719">
    <ele>318.65999999999997</ele>
   </trkpt>
   <trkpt lat="37.66109" lon="-93.34174">
    <ele>323.55</ele>
   </trkpt>
   <trkpt lat="37.66103000838884" lon="-93.34074333177487">
    <ele>316.05000000000007</ele>
   </trkpt>
   <trkpt lat="37.660970008392" lon="-93.33974666516072">
    <ele>307.85</ele>
   </trkpt>
   <trkpt lat="37.66091" lon="-93.33875">
    <ele>305.49</ele>
   </trkpt>
   <trkpt lat="37.6608811510666" lon="-93.337662218831">
    <ele>303.92</ele>
   </trkpt>
   <trkpt lat="37.66085229214424" lon="-93.33657443850755">
    <ele>305.27000000000004</ele>
   </trkpt>
   <trkpt lat="37.66082342323295" lon="-93.33548665903001">
    <ele>305.8</ele>
   </trkpt>
   <trkpt lat="37.660794544332745" lon="-93.33439888039862">
    <ele>306.98</ele>
   </trkpt>
   <trkpt lat="37.66076565544363" lon="-93.3333111026137">
    <ele>309.83000000000004</ele>
   </trkpt>
   <trkpt lat="37.66073675656562" lon="-93.3322233256755">
    <ele>312.11</ele>
   </trkpt>
   <trkpt lat="37.660707847698774" lon="-93.33113554958439">
    <ele>308.93</ele>
   </trkpt>
   <trkpt lat="37.660678928843055" lon="-93.33004777434057">
    <ele>309.04</ele>
   </trkpt>
   <trkpt lat="37.660650000000004" lon="-93.32896000000001">
    <ele>310.67</ele>
   </trkpt>
   <trkpt lat="37.660628014665875" lon="-93.3280279989092">
    <ele>310.70000000000005</ele>
   </trkpt>
   <trkpt lat="37.66060602199897" lon="-93.32709599837051">
    <ele>313.03000000000003</ele>
   </trkpt>
   <trkpt lat="37.660584021999284" lon="-93.3261639983841">
    <ele>314.47</ele>
   </trkpt>
   <trkpt lat="37.66056201466684" lon="-93.3252319989502">
    <ele>318.23</ele>
   </trkpt>
   <trkpt lat="37.660540000000005" lon="-93.32430000000001">
    <ele>316.86</ele>
   </trkpt>
   <trkpt lat="37.66051001185371" lon="-93.32333249884894">
    <ele>313.97</ele>
   </trkpt>
   <trkpt lat="37.66048001580537" lon="-93.3223649984796">
    <ele>311.36</ele>
   </trkpt>
   <trkpt lat="37.66045001185503" lon="-93.32139749889222">
    <ele>310.95</ele>
   </trkpt>
   <trkpt lat="37.66042" lon="-93.32043">
    <ele>315.02000000000004</ele>
   </trkpt>
   <trkpt lat="37.66048" lon="-93.32026">
    <ele>315.97</ele>
   </trkpt>
   <trkpt lat="37.66053" lon="-93.32018000000001">
    <ele>316.47</ele>
   </trkpt>
   <trkpt lat="37.66066" lon="-93.32012">
    <ele>316.88000000000005</ele>
   </trkpt>
   <trkpt lat="37.66151" lon="-93.32006000000001">
    <ele>317.44</ele>
   </trkpt>
   <trkpt lat="37.66198500022229" lon="-93.320045000089">
    <ele>316.47</ele>
   </trkpt>
   <trkpt lat="37.66246" lon="-93.32003">
    <ele>316.3</ele>
   </trkpt>
   <trkpt lat="37.663290000039105" lon="-93.31999500195624">
    <ele>318.53000000000003</ele>
   </trkpt>
   <trkpt lat="37.66412000006784" lon="-93.31996000312981">
    <ele>325.17</ele>
   </trkpt>
   <trkpt lat="37.66495000008625" lon="-93.3199250035207">
    <ele>328.95</ele>
   </trkpt>
   <trkpt lat="37.66578000009432" lon="-93.31989000312882">
    <ele>326.5</ele>
   </trkpt>
   <trkpt lat="37.66661000009204" lon="-93.31985500195415">
    <ele>326.16</ele>
   </trkpt>
   <trkpt lat="37.667440000000006" lon="-93.31982">
    <ele>329.89</ele>
   </trkpt>
   <trkpt lat="37.66752" lon="-93.31976">
    <ele>330.14000000000004</ele>
   </trkpt>
   <trkpt lat="37.66762000000001" lon="-93.31959">
    <ele>330.22</ele>
   </trkpt>
   <trkpt lat="37.66767" lon="-93.31946">
    <ele>330.03000000000003</ele>
   </trkpt>
   <trkpt lat="37.66765000195184" lon="-93.31877999981552">
    <ele>326.33</ele>
   </trkpt>
   <trkpt lat="37.66763" lon="-93.3181">
    <ele>325.70000000000005</ele>
   </trkpt>
   <trkpt lat="37.66762000000001" lon="-93.31729000000001">
    <ele>329.65000000000003</ele>
   </trkpt>
   <trkpt lat="37.66759500228057" lon="-93.31655499975746">
    <ele>324.86</ele>
   </trkpt>
   <trkpt lat="37.667570000000005" lon="-93.31582">
    <ele>322.52000000000004</ele>
   </trkpt>
   <trkpt lat="37.667570000000005" lon="-93.31583">
    <ele>322.52000000000004</ele>
   </trkpt>
   <trkpt lat="37.66753667533602" lon="-93.31481666576715">
    <ele>323.3</ele>
   </trkpt>
   <trkpt lat="37.66750334200302" lon="-93.31380333244442">
    <ele>324.78000000000003</ele>
   </trkpt>
   <trkpt lat="37.66747" lon="-93.31279">
    <ele>327.59000000000003</ele>
   </trkpt>
   <trkpt lat="37.667443341168315" lon="-93.3118266659883">
    <ele>333.3</ele>
   </trkpt>
   <trkpt lat="37.66741667450203" lon="-93.31086333266877">
    <ele>336.65</ele>
   </trkpt>
   <trkpt lat="37.667390000000005" lon="-93.30990000000001">
    <ele>338.31000000000006</ele>
   </trkpt>
   <trkpt lat="37.66738001154955" lon="-93.30894499962366">
    <ele>340.17</ele>
   </trkpt>
   <trkpt lat="37.66737001539947" lon="-93.30798999950446">
    <ele>340.89000000000004</ele>
   </trkpt>
   <trkpt lat="37.66736001154973" lon="-93.30703499964258">
    <ele>341.49</ele>
   </trkpt>
   <trkpt lat="37.667350000000006" lon="-93.30608000000001">
    <ele>342.35</ele>
   </trkpt>
   <trkpt lat="37.66732251203888" lon="-93.30510499893849">
    <ele>342.52000000000004</ele>
   </trkpt>
   <trkpt lat="37.66729501605226" lon="-93.3041299985993">
    <ele>341.05</ele>
   </trkpt>
   <trkpt lat="37.66726751204011" lon="-93.3031549989826">
    <ele>342.17</ele>
   </trkpt>
   <trkpt lat="37.66724" lon="-93.30218">
    <ele>347.74000000000007</ele>
   </trkpt>
   <trkpt lat="37.66722" lon="-93.30203">
    <ele>347.74000000000007</ele>
   </trkpt>
   <trkpt lat="37.66713" lon="-93.30164">
    <ele>349.85</ele>
   </trkpt>
   <trkpt lat="37.66702" lon="-93.30137">
    <ele>350.57000000000005</ele>
   </trkpt>
   <trkpt lat="37.666560000000004" lon="-93.30044000000001">
    <ele>352.31</ele>
   </trkpt>
   <trkpt lat="37.66651" lon="-93.30019">
    <ele>353.26</ele>
   </trkpt>
   <trkpt lat="37.66648" lon="-93.29990000000001">
    <ele>354.06000000000006</ele>
   </trkpt>
   <trkpt lat="37.666500000000006" lon="-93.29945000000001">
    <ele>354.65000000000003</ele>
   </trkpt>
   <trkpt lat="37.66653" lon="-93.29927">
    <ele>354.68000000000006</ele>
   </trkpt>
   <trkpt lat="37.66668000000001" lon="-93.29887000000001">
    <ele>353.40000000000003</ele>
   </trkpt>
   <trkpt lat="37.666850000000004" lon="-93.29858">
    <ele>351.65000000000003</ele>
   </trkpt>
   <trkpt lat="37.66723" lon="-93.29804000000001">
    <ele>351.35</ele>
   </trkpt>
   <trkpt lat="37.667170000000006" lon="-93.29787">
    <ele>350.63000000000005</ele>
   </trkpt>
   <trkpt lat="37.66716" lon="-93.29764">
    <ele>349.22</ele>
   </trkpt>
   <trkpt lat="37.667190000000005" lon="-93.29706">
    <ele>349.63000000000005</ele>
   </trkpt>
   <trkpt lat="37.66716334079169" lon="-93.29611999927907">
    <ele>361.62000000000006</ele>
   </trkpt>
   <trkpt lat="37.66713667412373" lon="-93.29517999923351">
    <ele>369.1</ele>
   </trkpt>
   <trkpt lat="37.66711" lon="-93.29424">
    <ele>368.8</ele>
   </trkpt>
   <trkpt lat="37.66709334223114" lon="-93.29321333282432">
    <ele>368.27000000000004</ele>
   </trkpt>
   <trkpt lat="37.66707667556369" lon="-93.29218666610961">
    <ele>355.66</ele>
   </trkpt>
   <trkpt lat="37.667060000000006" lon="-93.29116">
    <ele>346.82</ele>
   </trkpt>
   <trkpt lat="37.667060000000006" lon="-93.29117000000001">
    <ele>346.82</ele>
   </trkpt>
   <trkpt lat="37.66705000643856" lon="-93.2902966663883">
    <ele>344.15</ele>
   </trkpt>
   <trkpt lat="37.667040006438064" lon="-93.28942333301184">
    <ele>344.83000000000004</ele>
   </trkpt>
   <trkpt lat="37.667030000000004" lon="-93.28855">
    <ele>346.29</ele>
   </trkpt>
   <trkpt lat="37.66701500175653" lon="-93.28790499988777">
    <ele>345.46000000000004</ele>
   </trkpt>
   <trkpt lat="37.667" lon="-93.28726">
    <ele>343.93</ele>
   </trkpt>
   <trkpt lat="37.666986676757524" lon="-93.28616666620051">
    <ele>341.40000000000003</ele>
   </trkpt>
   <trkpt lat="37.666973343423294" lon="-93.28507333279371">
    <ele>340.29</ele>
   </trkpt>
   <trkpt lat="37.66696" lon="-93.28398000000001">
    <ele>342.59</ele>
   </trkpt>
   <trkpt lat="37.66693" lon="-93.28364">
    <ele>342.37</ele>
   </trkpt>
   <trkpt lat="37.66671" lon="-93.28314">
    <ele>341.95000000000005</ele>
   </trkpt>
   <trkpt lat="37.66664" lon="-93.28287">
    <ele>342.37</ele>
   </trkpt>
   <trkpt lat="37.666610008955814" lon="-93.28183999914637">
    <ele>344.30000000000007</ele>
   </trkpt>
   <trkpt lat="37.666580008955194" lon="-93.28080999912525">
    <ele>344.57000000000005</ele>
   </trkpt>
   <trkpt lat="37.66655" lon="-93.27978">
    <ele>341.99</ele>
   </trkpt>
   <trkpt lat="37.666528390628876" lon="-93.2786691631025">
    <ele>339.26</ele>
   </trkpt>
   <trkpt lat="37.66650677084032" lon="-93.27755832685199">
    <ele>339.11</ele>
   </trkpt>
   <trkpt lat="37.66648514063437" lon="-93.27644749124876">
    <ele>340.69000000000005</ele>
   </trkpt>
   <trkpt lat="37.666463500011034" lon="-93.27533665629316">
    <ele>342.54</ele>
   </trkpt>
   <trkpt lat="37.66644184897032" lon="-93.27422582198547">
    <ele>343.99</ele>
   </trkpt>
   <trkpt lat="37.66642018751224" lon="-93.27311498832601">
    <ele>346.06</ele>
   </trkpt>
   <trkpt lat="37.66639851563682" lon="-93.27200415531512">
    <ele>346.85</ele>
   </trkpt>
   <trkpt lat="37.66637683334406" lon="-93.27089332295304">
    <ele>346.7</ele>
   </trkpt>
   <trkpt lat="37.66635514063399" lon="-93.26978249124016">
    <ele>343.23</ele>
   </trkpt>
   <trkpt lat="37.66633343750661" lon="-93.26867166017674">
    <ele>342.88</ele>
   </trkpt>
   <trkpt lat="37.66631172396194" lon="-93.2675608297631">
    <ele>339.31</ele>
   </trkpt>
   <trkpt lat="37.666290000000004" lon="-93.26645">
    <ele>336.62</ele>
   </trkpt>
   <trkpt lat="37.66628" lon="-93.26645">
    <ele>336.61</ele>
   </trkpt>
   <trkpt lat="37.66544153850452" lon="-93.26647923473135">
    <ele>336.61</ele>
   </trkpt>
   <trkpt lat="37.6646030770018" lon="-93.26650846880223">
    <ele>336.61</ele>
   </trkpt>
   <trkpt lat="37.66376461549188" lon="-93.26653770221264">
    <ele>336.61</ele>
   </trkpt>
   <trkpt lat="37.662926153974745" lon="-93.26656693496267">
    <ele>344.40000000000003</ele>
   </trkpt>
   <trkpt lat="37.66208769245039" lon="-93.26659616705231">
    <ele>344.40000000000003</ele>
   </trkpt>
   <trkpt lat="37.66124923091882" lon="-93.26662539848162">
    <ele>344.40000000000003</ele>
   </trkpt>
   <trkpt lat="37.66041076938005" lon="-93.26665462925061">
    <ele>341.99</ele>
   </trkpt>
   <trkpt lat="37.659572307834054" lon="-93.26668385935935">
    <ele>339.71</ele>
   </trkpt>
   <trkpt lat="37.65873384628085" lon="-93.26671308880783">
    <ele>338.73</ele>
   </trkpt>
   <trkpt lat="37.65789538472044" lon="-93.26674231759613">
    <ele>338.23</ele>
   </trkpt>
   <trkpt lat="37.657056923152815" lon="-93.26677154572425">
    <ele>337.65</ele>
   </trkpt>
   <trkpt lat="37.656218461577964" lon="-93.26680077319226">
    <ele>336.88</ele>
   </trkpt>
   <trkpt lat="37.65538" lon="-93.26683000000001">
    <ele>336.33</ele>
   </trkpt>
   <trkpt lat="37.654549999980695" lon="-93.26685500083916">
    <ele>334.24</ele>
   </trkpt>
   <trkpt lat="37.65371999995612" lon="-93.26688000111942">
    <ele>332.45</ele>
   </trkpt>
   <trkpt lat="37.65288999992627" lon="-93.26690500084077">
    <ele>328.93</ele>
   </trkpt>
   <trkpt lat="37.652060000000006" lon="-93.26693">
    <ele>327.74</ele>
   </trkpt>
   <trkpt lat="37.651230000000005" lon="-93.26697">
    <ele>326.11</ele>
   </trkpt>
   <trkpt lat="37.6505050000356" lon="-93.26699250065803">
    <ele>326.19000000000005</ele>
   </trkpt>
   <trkpt lat="37.64978000006691" lon="-93.26701500087678">
    <ele>328.05</ele>
   </trkpt>
   <trkpt lat="37.64905500009396" lon="-93.2670375006562">
    <ele>329.70000000000005</ele>
   </trkpt>
   <trkpt lat="37.64833" lon="-93.26706">
    <ele>327.62</ele>
   </trkpt>
   <trkpt lat="37.6477" lon="-93.26711">
    <ele>325.68</ele>
   </trkpt>
   <trkpt lat="37.64702499987429" lon="-93.26721000093367">
    <ele>323.08000000000004</ele>
   </trkpt>
   <trkpt lat="37.646350000000005" lon="-93.26731000000001">
    <ele>319.69</ele>
   </trkpt>
   <trkpt lat="37.6457849998898" lon="-93.26736500043035">
    <ele>317.55</ele>
   </trkpt>
   <trkpt lat="37.64522" lon="-93.26742">
    <ele>316.02000000000004</ele>
   </trkpt>
   <trkpt lat="37.64493" lon="-93.26741000000001">
    <ele>314.51</ele>
   </trkpt>
   <trkpt lat="37.644780000000004" lon="-93.26751">
    <ele>314.56</ele>
   </trkpt>
   <trkpt lat="37.644740000000006" lon="-93.26758000000001">
    <ele>314.49000000000007</ele>
   </trkpt>
   <trkpt lat="37.64482500958066" lon="-93.26844999698888">
    <ele>311.41</ele>
   </trkpt>
   <trkpt lat="37.644910012772634" lon="-93.26931999596901">
    <ele>313.21000000000004</ele>
   </trkpt>
   <trkpt lat="37.64499500957592" lon="-93.27018999694027">
    <ele>319.91</ele>
   </trkpt>
   <trkpt lat="37.64508" lon="-93.27106">
    <ele>323.65000000000003</ele>
   </trkpt>
   <trkpt lat="37.64506" lon="-93.27127">
    <ele>324.34000000000003</ele>
   </trkpt>
   <trkpt lat="37.64482" lon="-93.27183000000001">
    <ele>325.32000000000005</ele>
   </trkpt>
   <trkpt lat="37.64471" lon="-93.27213">
    <ele>325.11</ele>
   </trkpt>
   <trkpt lat="37.64468" lon="-93.2723">
    <ele>324.55</ele>
   </trkpt>
   <trkpt lat="37.64470500409927" lon="-93.27328499985119">
    <ele>318.18</ele>
   </trkpt>
   <trkpt lat="37.64473" lon="-93.27427">
    <ele>307.14000000000004</ele>
   </trkpt>
   <trkpt lat="37.64472500259965" lon="-93.27505500021077">
    <ele>300.57</ele>
   </trkpt>
   <trkpt lat="37.64472000000001" lon="-93.27584">
    <ele>302.83000000000004</ele>
   </trkpt>
   <trkpt lat="37.64474000540126" lon="-93.27663999953998">
    <ele>309.67</ele>
   </trkpt>
   <trkpt lat="37.64476000540052" lon="-93.27743999951082">
    <ele>313.45</ele>
   </trkpt>
   <trkpt lat="37.644780000000004" lon="-93.27824000000001">
    <ele>313.56</ele>
   </trkpt>
   <trkpt lat="37.64479500460635" lon="-93.27928499962628">
    <ele>316.39</ele>
   </trkpt>
   <trkpt lat="37.64481" lon="-93.28033">
    <ele>323.48</ele>
   </trkpt>
   <trkpt lat="37.64483667406996" lon="-93.28126666592283">
    <ele>321.03000000000003</ele>
   </trkpt>
   <trkpt lat="37.644863340734595" lon="-93.28220333251828">
    <ele>312.08000000000004</ele>
   </trkpt>
   <trkpt lat="37.644890000000004" lon="-93.28314">
    <ele>301.82000000000005</ele>
   </trkpt>
   <trkpt lat="37.64497" lon="-93.28404">
    <ele>301.03000000000003</ele>
   </trkpt>
   <trkpt lat="37.64507000320861" lon="-93.28490999895284">
    <ele>308.24</ele>
   </trkpt>
   <trkpt lat="37.64517" lon="-93.28578">
    <ele>315.8</ele>
   </trkpt>
   <trkpt lat="37.64521000231156" lon="-93.28651999961099">
    <ele>321.19</ele>
   </trkpt>
   <trkpt lat="37.645250000000004" lon="-93.28726">
    <ele>319.89</ele>
   </trkpt>
   <trkpt lat="37.64526823221094" lon="-93.28835272459379">
    <ele>312.79</ele>
   </trkpt>
   <trkpt lat="37.645286454343356" lon="-93.28944544972386">
    <ele>308.29</ele>
   </trkpt>
   <trkpt lat="37.64530466639724" lon="-93.29053817538993">
    <ele>311.34</ele>
   </trkpt>
   <trkpt lat="37.645322868372574" lon="-93.29163090159167">
    <ele>323.3</ele>
   </trkpt>
   <trkpt lat="37.64534106026936" lon="-93.29272362832883">
    <ele>326.42</ele>
   </trkpt>
   <trkpt lat="37.64535924208756" lon="-93.29381635560107">
    <ele>326.88</ele>
   </trkpt>
   <trkpt lat="37.6453774138272" lon="-93.29490908340813">
    <ele>323.65000000000003</ele>
   </trkpt>
   <trkpt lat="37.64539557548822" lon="-93.2960018117497">
    <ele>320.95</ele>
   </trkpt>
   <trkpt lat="37.645413727070654" lon="-93.2970945406255">
    <ele>318.96000000000004</ele>
   </trkpt>
   <trkpt lat="37.64543186857447" lon="-93.2981872700352">
    <ele>315.47</ele>
   </trkpt>
   <trkpt lat="37.645450000000004" lon="-93.29928000000001">
    <ele>317.12</ele>
   </trkpt>
   <trkpt lat="37.64545667188962" lon="-93.30006666646615">
    <ele>316.09000000000003</ele>
   </trkpt>
   <trkpt lat="37.64546333855577" lon="-93.30085333307355">
    <ele>314.09000000000003</ele>
   </trkpt>
   <trkpt lat="37.64547" lon="-93.30164">
    <ele>318.13</ele>
   </trkpt>
   <trkpt lat="37.6454" lon="-93.30195">
    <ele>319.31000000000006</ele>
   </trkpt>
   <trkpt lat="37.64533" lon="-93.30214000000001">
    <ele>319.65999999999997</ele>
   </trkpt>
   <trkpt lat="37.645070000000004" lon="-93.30266">
    <ele>320.59000000000003</ele>
   </trkpt>
   <trkpt lat="37.64499" lon="-93.30290000000001">
    <ele>320.43000000000006</ele>
   </trkpt>
   <trkpt lat="37.64495" lon="-93.30315">
    <ele>320.3</ele>
   </trkpt>
   <trkpt lat="37.6449766739126" lon="-93.30407666592781">
    <ele>318.8</ele>
   </trkpt>
   <trkpt lat="37.64500334057716" lon="-93.30500333252108">
    <ele>316.01</ele>
   </trkpt>
   <trkpt lat="37.645030000000006" lon="-93.30593">
    <ele>314.24</ele>
   </trkpt>
   <trkpt lat="37.645100000000006" lon="-93.30633">
    <ele>314.02000000000004</ele>
   </trkpt>
   <trkpt lat="37.64535000204598" lon="-93.30702499768157">
    <ele>314.55000000000007</ele>
   </trkpt>
   <trkpt lat="37.6456" lon="-93.30772">
    <ele>315.52000000000004</ele>
   </trkpt>
   <trkpt lat="37.645630000000004" lon="-93.30787000000001">
    <ele>315.64000000000004</ele>
   </trkpt>
   <trkpt lat="37.64565000482987" lon="-93.30862666615356">
    <ele>315.52000000000004</ele>
   </trkpt>
   <trkpt lat="37.64567000482708" lon="-93.30938333271463">
    <ele>314.52000000000004</ele>
   </trkpt>
   <trkpt lat="37.64569" lon="-93.31014">
    <ele>312.24</ele>
   </trkpt>
   <trkpt lat="37.645700002374575" lon="-93.31088999994694">
    <ele>306.89000000000004</ele>
   </trkpt>
   <trkpt lat="37.64571" lon="-93.31164000000001">
    <ele>304.23</ele>
   </trkpt>
   <trkpt lat="37.645700000000005" lon="-93.31164000000001">
    <ele>304.20000000000005</ele>
   </trkpt>
   <trkpt lat="37.64491750003071" lon="-93.31168750150103">
    <ele>306.51</ele>
   </trkpt>
   <trkpt lat="37.644135000042375" lon="-93.31173500200126">
    <ele>310.09000000000003</ele>
   </trkpt>
   <trkpt lat="37.64335250003498" lon="-93.31178250150073">
    <ele>309.95</ele>
   </trkpt>
   <trkpt lat="37.642570000000006" lon="-93.31183000000001">
    <ele>313.51</ele>
   </trkpt>
   <trkpt lat="37.64179500001851" lon="-93.31186000031242">
    <ele>309.56</ele>
   </trkpt>
   <trkpt lat="37.641020000000005" lon="-93.31189">
    <ele>304.00000000000006</ele>
   </trkpt>
   <trkpt lat="37.6403" lon="-93.31206">
    <ele>298.09000000000003</ele>
   </trkpt>
   <trkpt lat="37.63980500003563" lon="-93.31219500091073">
    <ele>295.78999999999996</ele>
   </trkpt>
   <trkpt lat="37.63931" lon="-93.31233">
    <ele>291.37</ele>
   </trkpt>
   <trkpt lat="37.63909" lon="-93.31237">
    <ele>289.46000000000004</ele>
   </trkpt>
   <trkpt lat="37.638639999866044" lon="-93.312395000159">
    <ele>287.69</ele>
   </trkpt>
   <trkpt lat="37.63819" lon="-93.31242">
    <ele>287.33000000000004</ele>
   </trkpt>
   <trkpt lat="37.63765" lon="-93.31247">
    <ele>287.48</ele>
   </trkpt>
   <trkpt lat="37.6370800001767" lon="-93.31249000014732">
    <ele>287.95000000000005</ele>
   </trkpt>
   <trkpt lat="37.63651" lon="-93.31251">
    <ele>288.96000000000004</ele>
   </trkpt>
   <trkpt lat="37.636120000000005" lon="-93.31246">
    <ele>290.90999999999997</ele>
   </trkpt>
   <trkpt lat="37.635920000000006" lon="-93.31244000000001">
    <ele>292.13</ele>
   </trkpt>
   <trkpt lat="37.635310000113144" lon="-93.31229499881546">
    <ele>299.82000000000005</ele>
   </trkpt>
   <trkpt lat="37.6347" lon="-93.31215">
    <ele>308.81</ele>
   </trkpt>
   <trkpt lat="37.63439" lon="-93.3121">
    <ele>312.04</ele>
   </trkpt>
   <trkpt lat="37.633880000000005" lon="-93.31209000000001">
    <ele>314.15000000000003</ele>
   </trkpt>
   <trkpt lat="37.633010000019574" lon="-93.31212000070204">
    <ele>313.04</ele>
   </trkpt>
   <trkpt lat="37.632140000031555" lon="-93.31215000070159">
    <ele>312.25</ele>
   </trkpt>
   <trkpt lat="37.63127" lon="-93.31218000000001">
    <ele>313.46000000000004</ele>
   </trkpt>
   <trkpt lat="37.63128500315326" lon="-93.31304499959055">
    <ele>312.43</ele>
   </trkpt>
   <trkpt lat="37.6313" lon="-93.31391">
    <ele>312.43</ele>
   </trkpt>
   <trkpt lat="37.6313" lon="-93.31392000000001">
    <ele>312.43</ele>
   </trkpt>
   <trkpt lat="37.631316672022514" lon="-93.31471666628282">
    <ele>313.75</ele>
   </trkpt>
   <trkpt lat="37.63133333868863" lon="-93.31551333292305">
    <ele>313.97</ele>
   </trkpt>
   <trkpt lat="37.631350000000005" lon="-93.31631">
    <ele>314.15000000000003</ele>
   </trkpt>
   <trkpt lat="37.63137601621007" lon="-93.3172899986044">
    <ele>314.98</ele>
   </trkpt>
   <trkpt lat="37.631402024314795" lon="-93.31826999789482">
    <ele>315.14000000000004</ele>
   </trkpt>
   <trkpt lat="37.63142802431418" lon="-93.31924999787105">
    <ele>313.65000000000003</ele>
   </trkpt>
   <trkpt lat="37.63145401620818" lon="-93.32022999853294">
    <ele>312.36</ele>
   </trkpt>
   <trkpt lat="37.63148" lon="-93.32121000000001">
    <ele>311.09000000000003</ele>
   </trkpt>
   <trkpt lat="37.63150000860972" lon="-93.32221999948264">
    <ele>308.32000000000005</ele>
   </trkpt>
   <trkpt lat="37.631520008610245" lon="-93.32322999950901">
    <ele>307.98</ele>
   </trkpt>
   <trkpt lat="37.63154" lon="-93.32424">
    <ele>311.17</ele>
   </trkpt>
   <trkpt lat="37.631570027309685" lon="-93.32527856891741">
    <ele>312.12</ele>
   </trkpt>
   <trkpt lat="37.631600045516215" lon="-93.32631713867396">
    <ele>311.62</ele>
   </trkpt>
   <trkpt lat="37.631630054619585" lon="-93.3273557092694">
    <ele>311.74</ele>
   </trkpt>
   <trkpt lat="37.63166005461975" lon="-93.32839428070348">
    <ele>310.55000000000007</ele>
   </trkpt>
   <trkpt lat="37.63169004551674" lon="-93.32943285297594">
    <ele>307.73</ele>
   </trkpt>
   <trkpt lat="37.631720027310486" lon="-93.33047142608655">
    <ele>304.96</ele>
   </trkpt>
   <trkpt lat="37.631750000000004" lon="-93.33151000000001">
    <ele>298.25</ele>
   </trkpt>
   <trkpt lat="37.63174" lon="-93.33185">
    <ele>297.46</ele>
   </trkpt>
   <trkpt lat="37.63177000590578" lon="-93.33268666593445">
    <ele>299.54</ele>
   </trkpt>
   <trkpt lat="37.631800005903735" lon="-93.33352333254444">
    <ele>300.3</ele>
   </trkpt>
   <trkpt lat="37.63183" lon="-93.33436">
    <ele>303.00000000000006</ele>
   </trkpt>
   <trkpt lat="37.631870000000006" lon="-93.33467">
    <ele>304.93</ele>
   </trkpt>
   <trkpt lat="37.63199" lon="-93.33481">
    <ele>306.24</ele>
   </trkpt>
   <trkpt lat="37.63205" lon="-93.33485">
    <ele>306.70000000000005</ele>
   </trkpt>
   <trkpt lat="37.6321" lon="-93.33486">
    <ele>306.70000000000005</ele>
   </trkpt>
   <trkpt lat="37.63287000001337" lon="-93.33483500077698">
    <ele>307.9</ele>
   </trkpt>
   <trkpt lat="37.633640000021465" lon="-93.33481000103586">
    <ele>307.1</ele>
   </trkpt>
   <trkpt lat="37.63441000002428" lon="-93.33478500077665">
    <ele>306.43</ele>
   </trkpt>
   <trkpt lat="37.635180000000005" lon="-93.33476">
    <ele>306.45</ele>
   </trkpt>
   <trkpt lat="37.63535" lon="-93.3348">
    <ele>306.71000000000004</ele>
   </trkpt>
   <trkpt lat="37.63541" lon="-93.33484000000001">
    <ele>306.71000000000004</ele>
   </trkpt>
   <trkpt lat="37.635470000000005" lon="-93.33496000000001">
    <ele>306.75</ele>
   </trkpt>
   <trkpt lat="37.635500037852864" lon="-93.33601888547356">
    <ele>304.96</ele>
   </trkpt>
   <trkpt lat="37.63553006624257" lon="-93.33707777180312">
    <ele>302.8</ele>
   </trkpt>
   <trkpt lat="37.635560085169146" lon="-93.33813665898836">
    <ele>301.88000000000005</ele>
   </trkpt>
   <trkpt lat="37.63559009463256" lon="-93.33919554702905">
    <ele>302.92</ele>
   </trkpt>
   <trkpt lat="37.63562009463279" lon="-93.34025443592492">
    <ele>302.4</ele>
   </trkpt>
   <trkpt lat="37.63565008516983" lon="-93.34131332567569">
    <ele>300.89000000000004</ele>
   </trkpt>
   <trkpt lat="37.63568006624364" lon="-93.34237221628109">
    <ele>302.84</ele>
   </trkpt>
   <trkpt lat="37.63571003785423" lon="-93.34343110774088">
    <ele>301.38000000000005</ele>
   </trkpt>
   <trkpt lat="37.635740000000006" lon="-93.34449000000001">
    <ele>297.39000000000004</ele>
   </trkpt>
   <trkpt lat="37.63568" lon="-93.34474">
    <ele>295.13</ele>
   </trkpt>
   <trkpt lat="37.63557" lon="-93.34484">
    <ele>292.89000000000004</ele>
   </trkpt>
   <trkpt lat="37.63542" lon="-93.34492">
    <ele>291.26</ele>
   </trkpt>
   <trkpt lat="37.635220000000004" lon="-93.34492">
    <ele>286.23</ele>
   </trkpt>
   <trkpt lat="37.634930000000004" lon="-93.34488">
    <ele>281.22</ele>
   </trkpt>
   <trkpt lat="37.63441" lon="-93.34474">
    <ele>276.13000000000005</ele>
   </trkpt>
   <trkpt lat="37.634170000000005" lon="-93.3447">
    <ele>275.0</ele>
   </trkpt>
   <trkpt lat="37.63403" lon="-93.34471">
    <ele>274.74</ele>
   </trkpt>
   <trkpt lat="37.63385" lon="-93.34479">
    <ele>274.68</ele>
   </trkpt>
   <trkpt lat="37.63364" lon="-93.34490000000001">
    <ele>274.81</ele>
   </trkpt>
   <trkpt lat="37.63354" lon="-93.34501">
    <ele>275.52000000000004</ele>
   </trkpt>
   <trkpt lat="37.6330350018245" lon="-93.34568000464573">
    <ele>276.0</ele>
   </trkpt>
   <trkpt lat="37.63253" lon="-93.34635">
    <ele>276.38</ele>
   </trkpt>
   <trkpt lat="37.632160000000006" lon="-93.34674000000001">
    <ele>279.15</ele>
   </trkpt>
   <trkpt lat="37.63192" lon="-93.34694">
    <ele>280.89000000000004</ele>
   </trkpt>
   <trkpt lat="37.631350000000005" lon="-93.34727000000001">
    <ele>288.84000000000003</ele>
   </trkpt>
   <trkpt lat="37.630950000000006" lon="-93.34748">
    <ele>293.26</ele>
   </trkpt>
   <trkpt lat="37.630790000000005" lon="-93.34761">
    <ele>296.05</ele>
   </trkpt>
   <trkpt lat="37.630680000000005" lon="-93.34774">
    <ele>297.07</ele>
   </trkpt>
   <trkpt lat="37.630590000000005" lon="-93.34793">
    <ele>297.77000000000004</ele>
   </trkpt>
   <trkpt lat="37.630410000000005" lon="-93.34846">
    <ele>298.81</ele>
   </trkpt>
   <trkpt lat="37.63035" lon="-93.34852000000001">
    <ele>298.96</ele>
   </trkpt>
   <trkpt lat="37.63022" lon="-93.34859">
    <ele>299.07</ele>
   </trkpt>
   <trkpt lat="37.630100000000006" lon="-93.34864">
    <ele>299.21000000000004</ele>
   </trkpt>
   <trkpt lat="37.62944" lon="-93.34863000000001">
    <ele>301.45000000000005</ele>
   </trkpt>
   <trkpt lat="37.62894" lon="-93.34864">
    <ele>303.48</ele>
   </trkpt>
   <trkpt lat="37.628220000006614" lon="-93.34867000116283">
    <ele>303.02</ele>
   </trkpt>
   <trkpt lat="37.627500000005625" lon="-93.34870000174439">
    <ele>299.14</ele>
   </trkpt>
   <trkpt lat="37.62677999999705" lon="-93.34873000174471">
    <ele>295.2</ele>
   </trkpt>
   <trkpt lat="37.626059999980875" lon="-93.34876000116384">
    <ele>297.03000000000003</ele>
   </trkpt>
   <trkpt lat="37.62534" lon="-93.34879000000001">
    <ele>301.19</ele>
   </trkpt>
   <trkpt lat="37.62503" lon="-93.34884000000001">
    <ele>302.20000000000005</ele>
   </trkpt>
   <trkpt lat="37.62503" lon="-93.34894000000001">
    <ele>302.4</ele>
   </trkpt>
   <trkpt lat="37.62503" lon="-93.34884000000001">
    <ele>302.21000000000004</ele>
   </trkpt>
   <trkpt lat="37.625058017836395" lon="-93.34986799844539">
    <ele>302.35</ele>
   </trkpt>
   <trkpt lat="37.62508602675454" lon="-93.35089599766562">
    <ele>302.27000000000004</ele>
   </trkpt>
   <trkpt lat="37.6251140267544" lon="-93.35192399766042">
    <ele>304.62</ele>
   </trkpt>
   <trkpt lat="37.625142017835984" lon="-93.35295199842956">
    <ele>309.82000000000005</ele>
   </trkpt>
   <trkpt lat="37.625170000000004" lon="-93.35398">
    <ele>319.76000000000005</ele>
   </trkpt>
   <trkpt lat="37.62519667700152" lon="-93.35508666584823">
    <ele>325.18</ele>
   </trkpt>
   <trkpt lat="37.6252233436676" lon="-93.35619333249065">
    <ele>329.24</ele>
   </trkpt>
   <trkpt lat="37.62525" lon="-93.35730000000001">
    <ele>333.23</ele>
   </trkpt>
   <trkpt lat="37.6253" lon="-93.35798000000001">
    <ele>331.43</ele>
   </trkpt>
   <trkpt lat="37.62533500412745" lon="-93.35896999930378">
    <ele>325.54</ele>
   </trkpt>
   <trkpt lat="37.625370000000004" lon="-93.35996">
    <ele>322.85</ele>
   </trkpt>
   <trkpt lat="37.625350000000005" lon="-93.36015">
    <ele>321.29</ele>
   </trkpt>
   <trkpt lat="37.625280000000004" lon="-93.36041">
    <ele>320.32000000000005</ele>
   </trkpt>
   <trkpt lat="37.624970000000005" lon="-93.36128000000001">
    <ele>317.02000000000004</ele>
   </trkpt>
   <trkpt lat="37.62476667253583" lon="-93.36211333785671">
    <ele>314.35</ele>
   </trkpt>
   <trkpt lat="37.62456333921116" lon="-93.36294667115442">
    <ele>313.21999999999997</ele>
   </trkpt>
   <trkpt lat="37.62436" lon="-93.36378">
    <ele>312.94000000000005</ele>
   </trkpt>
   <trkpt lat="37.62407667438046" lon="-93.36473667399207">
    <ele>310.17</ele>
   </trkpt>
   <trkpt lat="37.62379334103741" lon="-93.36569334069144">
    <ele>307.38000000000005</ele>
   </trkpt>
   <trkpt lat="37.62351" lon="-93.36665">
    <ele>306.58000000000004</ele>
   </trkpt>
   <trkpt lat="37.62333" lon="-93.36712000000001">
    <ele>306.59000000000003</ele>
   </trkpt>
   <trkpt lat="37.623250000000006" lon="-93.36725000000001">
    <ele>306.68</ele>
   </trkpt>
   <trkpt lat="37.622715003342" lon="-93.3681400064055">
    <ele>307.74</ele>
   </trkpt>
   <trkpt lat="37.62218" lon="-93.36903000000001">
    <ele>305.59000000000003</ele>
   </trkpt>
   <trkpt lat="37.62209" lon="-93.36923">
    <ele>305.43</ele>
   </trkpt>
   <trkpt lat="37.62203" lon="-93.36941">
    <ele>305.19</ele>
   </trkpt>
   <trkpt lat="37.622" lon="-93.36961000000001">
    <ele>305.12</ele>
   </trkpt>
   <trkpt lat="37.621990000000004" lon="-93.36995">
    <ele>304.96</ele>
   </trkpt>
   <trkpt lat="37.62201201497654" lon="-93.37089199888096">
    <ele>305.22</ele>
   </trkpt>
   <trkpt lat="37.62203402246478" lon="-93.37183399831976">
    <ele>306.69</ele>
   </trkpt>
   <trkpt lat="37.62205602246471" lon="-93.3727759983162">
    <ele>309.48</ele>
   </trkpt>
   <trkpt lat="37.6220780149763" lon="-93.37371799887006">
    <ele>309.51</ele>
   </trkpt>
   <trkpt lat="37.6221" lon="-93.37466">
    <ele>308.88000000000005</ele>
   </trkpt>
   <trkpt lat="37.622080000000004" lon="-93.37481000000001">
    <ele>308.62</ele>
   </trkpt>
   <trkpt lat="37.62201" lon="-93.37496">
    <ele>307.69</ele>
   </trkpt>
   <trkpt lat="37.621860000000005" lon="-93.3751">
    <ele>305.93</ele>
   </trkpt>
   <trkpt lat="37.62178" lon="-93.37514">
    <ele>305.93</ele>
   </trkpt>
   <trkpt lat="37.621680000000005" lon="-93.37514">
    <ele>304.55</ele>
   </trkpt>
   <trkpt lat="37.621500000000005" lon="-93.3751">
    <ele>303.63</ele>
   </trkpt>
   <trkpt lat="37.620905000267264" lon="-93.37487499821954">
    <ele>300.64</ele>
   </trkpt>
   <trkpt lat="37.62031" lon="-93.37465">
    <ele>300.62</ele>
   </trkpt>
   <trkpt lat="37.61963000038284" lon="-93.37435999735953">
    <ele>301.29</ele>
   </trkpt>
   <trkpt lat="37.618950000000005" lon="-93.37407">
    <ele>299.21000000000004</ele>
   </trkpt>
   <trkpt lat="37.618790000000004" lon="-93.37402">
    <ele>297.74</ele>
   </trkpt>
   <trkpt lat="37.618640000000006" lon="-93.37402">
    <ele>297.74</ele>
   </trkpt>
   <trkpt lat="37.618500000000004" lon="-93.37403">
    <ele>296.99</ele>
   </trkpt>
   <trkpt lat="37.61833" lon="-93.37417">
    <ele>296.33000000000004</ele>
   </trkpt>
   <trkpt lat="37.61809" lon="-93.3747">
    <ele>295.97</ele>
   </trkpt>
   <trkpt lat="37.618050000000004" lon="-93.37484">
    <ele>295.93</ele>
   </trkpt>
   <trkpt lat="37.61804" lon="-93.37501">
    <ele>295.93</ele>
   </trkpt>
   <trkpt lat="37.618120000000005" lon="-93.3759">
    <ele>295.71000000000004</ele>
   </trkpt>
   <trkpt lat="37.618170000000006" lon="-93.37608">
    <ele>296.34000000000003</ele>
   </trkpt>
   <trkpt lat="37.61826000000001" lon="-93.37622">
    <ele>296.86</ele>
   </trkpt>
   <trkpt lat="37.61871" lon="-93.37672">
    <ele>300.64</ele>
   </trkpt>
   <trkpt lat="37.61882000000001" lon="-93.37693">
    <ele>301.31</ele>
   </trkpt>
   <trkpt lat="37.618880000000004" lon="-93.37716">
    <ele>301.67</ele>
   </trkpt>
   <trkpt lat="37.618880000000004" lon="-93.37783">
    <ele>302.09000000000003</ele>
   </trkpt>
   <trkpt lat="37.61883" lon="-93.37858000000001">
    <ele>304.05</ele>
   </trkpt>
   <trkpt lat="37.61876000530609" lon="-93.3793733348834">
    <ele>305.57</ele>
   </trkpt>
   <trkpt lat="37.618690005301126" lon="-93.380166668273">
    <ele>306.29</ele>
   </trkpt>
   <trkpt lat="37.61862" lon="-93.38096">
    <ele>306.48</ele>
   </trkpt>
   <trkpt lat="37.618590000000005" lon="-93.38178">
    <ele>307.17</ele>
   </trkpt>
   <trkpt lat="37.61860801409901" lon="-93.38269399911027">
    <ele>310.98</ele>
   </trkpt>
   <trkpt lat="37.61862602114847" lon="-93.38360799866335">
    <ele>312.87</ele>
   </trkpt>
   <trkpt lat="37.6186440211484" lon="-93.38452199865908">
    <ele>308.88000000000005</ele>
   </trkpt>
   <trkpt lat="37.61866201409876" lon="-93.38543599909727">
    <ele>307.00000000000006</ele>
   </trkpt>
   <trkpt lat="37.618680000000005" lon="-93.38635000000001">
    <ele>300.85</ele>
   </trkpt>
   <trkpt lat="37.618715011971446" lon="-93.38732249863155">
    <ele>297.07</ele>
   </trkpt>
   <trkpt lat="37.61875001596205" lon="-93.38829499817892">
    <ele>297.95000000000005</ele>
   </trkpt>
   <trkpt lat="37.618785011971816" lon="-93.38926749864187">
    <ele>300.51</ele>
   </trkpt>
   <trkpt lat="37.61882000000001" lon="-93.39024">
    <ele>303.26000000000005</ele>
   </trkpt>
   <trkpt lat="37.61884667614635" lon="-93.39129999916332">
    <ele>305.62</ele>
   </trkpt>
   <trkpt lat="37.618873342811106" lon="-93.39235999908716">
    <ele>310.16</ele>
   </trkpt>
   <trkpt lat="37.618900000000004" lon="-93.39342">
    <ele>315.02000000000004</ele>
   </trkpt>
   <trkpt lat="37.618970000000004" lon="-93.39408">
    <ele>316.82000000000005</ele>
   </trkpt>
   <trkpt lat="37.619" lon="-93.39518000000001">
    <ele>319.29</ele>
   </trkpt>
   <trkpt lat="37.61902717215153" lon="-93.39625571192617">
    <ele>321.36</ele>
   </trkpt>
   <trkpt lat="37.619054334538276" lon="-93.39733142463845">
    <ele>321.67</ele>
   </trkpt>
   <trkpt lat="37.61908148716021" lon="-93.39840713813659">
    <ele>322.14000000000004</ele>
   </trkpt>
   <trkpt lat="37.61910863001733" lon="-93.3994828524203">
    <ele>322.05</ele>
   </trkpt>
   <trkpt lat="37.61913576310959" lon="-93.40055856748933">
    <ele>322.41</ele>
   </trkpt>
   <trkpt lat="37.619162886437" lon="-93.40163428334334">
    <ele>323.51</ele>
   </trkpt>
   <trkpt lat="37.61919" lon="-93.40271000000001">
    <ele>324.31000000000006</ele>
   </trkpt>
   <trkpt lat="37.6192100142899" lon="-93.4037724991575">
    <ele>324.88</ele>
   </trkpt>
   <trkpt lat="37.61923001905339" lon="-93.40483499888691">
    <ele>324.42</ele>
   </trkpt>
   <trkpt lat="37.619250014290465" lon="-93.40589749918793">
    <ele>323.71000000000004</ele>
   </trkpt>
   <trkpt lat="37.61927" lon="-93.40696000000001">
    <ele>323.18</ele>
   </trkpt>
   <trkpt lat="37.61927" lon="-93.40697">
    <ele>323.18</ele>
   </trkpt>
   <trkpt lat="37.61928" lon="-93.40744000000001">
    <ele>322.87000000000006</ele>
   </trkpt>
   <trkpt lat="37.61848500000045" lon="-93.40744500005349">
    <ele>319.64000000000004</ele>
   </trkpt>
   <trkpt lat="37.61769" lon="-93.40745000000001">
    <ele>318.29</ele>
   </trkpt>
   <trkpt lat="37.617630000000005" lon="-93.40778">
    <ele>318.20000000000005</ele>
   </trkpt>
   <trkpt lat="37.617445001508" lon="-93.40839000172214">
    <ele>318.37000000000006</ele>
   </trkpt>
   <trkpt lat="37.61726" lon="-93.409">
    <ele>319.57</ele>
   </trkpt>
   <trkpt lat="37.61699000301519" lon="-93.40985500332381">
    <ele>322.22</ele>
   </trkpt>
   <trkpt lat="37.61672" lon="-93.41071000000001">
    <ele>324.26000000000005</ele>
   </trkpt>
   <trkpt lat="37.61672" lon="-93.41073">
    <ele>324.31000000000006</ele>
   </trkpt>
   <trkpt lat="37.61654000134606" lon="-93.41129000128436">
    <ele>325.68</ele>
   </trkpt>
   <trkpt lat="37.61636" lon="-93.41185">
    <ele>326.67</ele>
   </trkpt>
   <trkpt lat="37.61592" lon="-93.41163">
    <ele>325.54</ele>
   </trkpt>
  </trkseg>
 </trk>
</gpx>
