<?xml version="1.0" encoding="UTF-8"?>
<gpx creator="StravaGPX" version="1.1" xmlns="http://www.topografix.com/GPX/1/1" xmlns:xsi="http://www.w3.org/2001/XMLSchema-instance" xsi:schemaLocation="http://www.topografix.com/GPX/1/1 http://www.topografix.com/GPX/1/1/gpx.xsd">
 <metadata>
  <name>Frisco to Springfield</name>
  <author>
   <name>Kyndle Katzer</name>
   <link href="https://www.strava.com/athletes/10134001"/>
  </author>
  <copyright author="OpenStreetMap contributors">
   <year>2020</year>
   <license>https://www.openstreetmap.org/copyright</license>
  </copyright>
  <link href="https://www.strava.com/routes/3335811973838770020"/>
 </metadata>
 <trk>
  <name>Frisco to Springfield</name>
  <link href="https://www.strava.com/routes/3335811973838770020"/>
  <type>cycling</type>
  <trkseg>
   <trkpt lat="37.583800000000004" lon="-93.41549">
    <ele>344.34000000000003</ele>
   </trkpt>
   <trkpt lat="37.58290800023583" lon="-93.41537199434481">
    <ele>344.22</ele>
   </trkpt>
   <trkpt lat="37.58201600035418" lon="-93.41525399151745">
    <ele>344.89000000000004</ele>
   </trkpt>
   <trkpt lat="37.581124000355075" lon="-93.41513599151772">
    <ele>345.43</ele>
   </trkpt>
   <trkpt lat="37.5802320002385" lon="-93.41501799434548">
    <ele>346.34000000000003</ele>
   </trkpt>
   <trkpt lat="37.57934" lon="-93.4149">
    <ele>346.69000000000005</ele>
   </trkpt>
   <trkpt lat="37.578520000258436" lon="-93.41477999471617">
    <ele>347.54</ele>
   </trkpt>
   <trkpt lat="37.577700000395396" lon="-93.41465999207551">
    <ele>348.25</ele>
   </trkpt>
   <trkpt lat="37.576880000410874" lon="-93.41453999207792">
    <ele>348.94</ele>
   </trkpt>
   <trkpt lat="37.576060000304885" lon="-93.41441999472325">
    <ele>349.68000000000006</ele>
   </trkpt>
   <trkpt lat="37.57524" lon="-93.41430000000001">
    <ele>349.6</ele>
   </trkpt>
   <trkpt lat="37.57444500005227" lon="-93.41419499887982">
    <ele>348.63000000000005</ele>
   </trkpt>
   <trkpt lat="37.57365" lon="-93.41409">
    <ele>347.06</ele>
   </trkpt>
   <trkpt lat="37.57318" lon="-93.414">
    <ele>346.67</ele>
   </trkpt>
   <trkpt lat="37.57248000009715" lon="-93.41390999746156">
    <ele>345.77000000000004</ele>
   </trkpt>
   <trkpt lat="37.571780000125976" lon="-93.41381999661499">
    <ele>344.95000000000005</ele>
   </trkpt>
   <trkpt lat="37.57108000008649" lon="-93.41372999746025">
    <ele>344.43</ele>
   </trkpt>
   <trkpt lat="37.57038" lon="-93.41364">
    <ele>343.62</ele>
   </trkpt>
   <trkpt lat="37.57039" lon="-93.41364">
    <ele>343.62</ele>
   </trkpt>
   <trkpt lat="37.56950166701562" lon="-93.41350999224669">
    <ele>342.85</ele>
   </trkpt>
   <trkpt lat="37.56861333388868" lon="-93.41337998759451">
    <ele>341.87</ele>
   </trkpt>
   <trkpt lat="37.56772500061919" lon="-93.41324998604327">
    <ele>340.88</ele>
   </trkpt>
   <trkpt lat="37.56683666720715" lon="-93.4131199875928">
    <ele>340.36000000000007</ele>
   </trkpt>
   <trkpt lat="37.565948333652564" lon="-93.41298999224291">
    <ele>340.80000000000007</ele>
   </trkpt>
   <trkpt lat="37.56506" lon="-93.41286000000001">
    <ele>341.56</ele>
   </trkpt>
   <trkpt lat="37.56456" lon="-93.41281000000001">
    <ele>341.82</ele>
   </trkpt>
   <trkpt lat="37.563990000000004" lon="-93.41279">
    <ele>342.18</ele>
   </trkpt>
   <trkpt lat="37.56353999993269" lon="-93.41279">
    <ele>342.87</ele>
   </trkpt>
   <trkpt lat="37.56309" lon="-93.41279">
    <ele>343.76</ele>
   </trkpt>
   <trkpt lat="37.56254000015389" lon="-93.4128400003561">
    <ele>344.25</ele>
   </trkpt>
   <trkpt lat="37.56199" lon="-93.41289">
    <ele>344.92</ele>
   </trkpt>
   <trkpt lat="37.56137500006219" lon="-93.41300500094808">
    <ele>345.27000000000004</ele>
   </trkpt>
   <trkpt lat="37.56076" lon="-93.41312">
    <ele>345.72</ele>
   </trkpt>
   <trkpt lat="37.559947500572484" lon="-93.41333000686625">
    <ele>346.30000000000007</ele>
   </trkpt>
   <trkpt lat="37.55913500077304" lon="-93.41354000915233">
    <ele>346.53</ele>
   </trkpt>
   <trkpt lat="37.558322500601626" lon="-93.41375000685848">
    <ele>346.95000000000005</ele>
   </trkpt>
   <trkpt lat="37.55751" lon="-93.41396">
    <ele>347.37</ele>
   </trkpt>
   <trkpt lat="37.55698" lon="-93.41401">
    <ele>347.65000000000003</ele>
   </trkpt>
   <trkpt lat="37.556400000000004" lon="-93.414">
    <ele>347.84000000000003</ele>
   </trkpt>
   <trkpt lat="37.55604" lon="-93.41392">
    <ele>347.94</ele>
   </trkpt>
   <trkpt lat="37.55554" lon="-93.41379">
    <ele>348.11</ele>
   </trkpt>
   <trkpt lat="37.55501" lon="-93.41357">
    <ele>347.89000000000004</ele>
   </trkpt>
   <trkpt lat="37.554480000000005" lon="-93.41329">
    <ele>347.56</ele>
   </trkpt>
   <trkpt lat="37.55398" lon="-93.41295000000001">
    <ele>347.76</ele>
   </trkpt>
   <trkpt lat="37.5534" lon="-93.41244">
    <ele>346.77000000000004</ele>
   </trkpt>
   <trkpt lat="37.5527" lon="-93.4119">
    <ele>346.1</ele>
   </trkpt>
   <trkpt lat="37.552130000000005" lon="-93.41141">
    <ele>346.16</ele>
   </trkpt>
   <trkpt lat="37.551603334805" lon="-93.41098999405142">
    <ele>346.43</ele>
   </trkpt>
   <trkpt lat="37.55107666812233" lon="-93.41056999403874">
    <ele>346.75</ele>
   </trkpt>
   <trkpt lat="37.55055" lon="-93.41015">
    <ele>346.87</ele>
   </trkpt>
   <trkpt lat="37.54979" lon="-93.40957">
    <ele>346.19000000000005</ele>
   </trkpt>
   <trkpt lat="37.549265000707656" lon="-93.40914499696282">
    <ele>345.6</ele>
   </trkpt>
   <trkpt lat="37.54874" lon="-93.40872">
    <ele>344.97</ele>
   </trkpt>
   <trkpt lat="37.54822" lon="-93.40833">
    <ele>344.1</ele>
   </trkpt>
   <trkpt lat="37.547410000000006" lon="-93.40787">
    <ele>342.99</ele>
   </trkpt>
   <trkpt lat="37.54695500008436" lon="-93.4076949989146">
    <ele>342.52000000000004</ele>
   </trkpt>
   <trkpt lat="37.5465" lon="-93.40752">
    <ele>342.0</ele>
   </trkpt>
   <trkpt lat="37.54599" lon="-93.40738">
    <ele>340.96000000000004</ele>
   </trkpt>
   <trkpt lat="37.54534" lon="-93.40726000000001">
    <ele>340.01000000000005</ele>
   </trkpt>
   <trkpt lat="37.544900000000005" lon="-93.40715">
    <ele>339.07000000000005</ele>
   </trkpt>
   <trkpt lat="37.544360000000005" lon="-93.40706">
    <ele>338.34000000000003</ele>
   </trkpt>
   <trkpt lat="37.543980000000005" lon="-93.40695000000001">
    <ele>338.02000000000004</ele>
   </trkpt>
   <trkpt lat="37.54348" lon="-93.40675">
    <ele>337.59</ele>
   </trkpt>
   <trkpt lat="37.54295000044883" lon="-93.4064149976031">
    <ele>336.56</ele>
   </trkpt>
   <trkpt lat="37.54242" lon="-93.40608">
    <ele>336.13000000000005</ele>
   </trkpt>
   <trkpt lat="37.54181750210491" lon="-93.40566999004577">
    <ele>335.0</ele>
   </trkpt>
   <trkpt lat="37.541215002792235" lon="-93.40525998671816">
    <ele>334.37</ele>
   </trkpt>
   <trkpt lat="37.54061250206207" lon="-93.40484999001691">
    <ele>333.42</ele>
   </trkpt>
   <trkpt lat="37.54001" lon="-93.40444000000001">
    <ele>332.63000000000005</ele>
   </trkpt>
   <trkpt lat="37.539860000000004" lon="-93.40438">
    <ele>332.37000000000006</ele>
   </trkpt>
   <trkpt lat="37.539390000000004" lon="-93.40403">
    <ele>332.04</ele>
   </trkpt>
   <trkpt lat="37.53918" lon="-93.40393">
    <ele>331.72</ele>
   </trkpt>
   <trkpt lat="37.53874500065939" lon="-93.40354999782731">
    <ele>330.81000000000006</ele>
   </trkpt>
   <trkpt lat="37.53831" lon="-93.40317">
    <ele>330.34000000000003</ele>
   </trkpt>
   <trkpt lat="37.537940000000006" lon="-93.40272">
    <ele>329.8</ele>
   </trkpt>
   <trkpt lat="37.537420000000004" lon="-93.40197">
    <ele>328.92</ele>
   </trkpt>
   <trkpt lat="37.537110000000006" lon="-93.40138">
    <ele>328.24</ele>
   </trkpt>
   <trkpt lat="37.536785001906985" lon="-93.40069499686425">
    <ele>327.43000000000006</ele>
   </trkpt>
   <trkpt lat="37.536460000000005" lon="-93.40001000000001">
    <ele>326.56</ele>
   </trkpt>
   <trkpt lat="37.53589" lon="-93.39921000000001">
    <ele>325.92</ele>
   </trkpt>
   <trkpt lat="37.53567" lon="-93.39897">
    <ele>325.44</ele>
   </trkpt>
   <trkpt lat="37.53515" lon="-93.39853000000001">
    <ele>324.99</ele>
   </trkpt>
   <trkpt lat="37.534740000000006" lon="-93.39829">
    <ele>324.55</ele>
   </trkpt>
   <trkpt lat="37.534240000000004" lon="-93.39806">
    <ele>324.06</ele>
   </trkpt>
   <trkpt lat="37.533640000000005" lon="-93.39793">
    <ele>323.14000000000004</ele>
   </trkpt>
   <trkpt lat="37.53294" lon="-93.39793">
    <ele>321.8</ele>
   </trkpt>
   <trkpt lat="37.53264" lon="-93.39797">
    <ele>321.65999999999997</ele>
   </trkpt>
   <trkpt lat="37.532340000000005" lon="-93.39804000000001">
    <ele>320.89</ele>
   </trkpt>
   <trkpt lat="37.532000000000004" lon="-93.39816">
    <ele>320.64000000000004</ele>
   </trkpt>
   <trkpt lat="37.531670000000005" lon="-93.39831000000001">
    <ele>320.07</ele>
   </trkpt>
   <trkpt lat="37.53125" lon="-93.39856">
    <ele>319.62</ele>
   </trkpt>
   <trkpt lat="37.53092" lon="-93.39878">
    <ele>319.53000000000003</ele>
   </trkpt>
   <trkpt lat="37.530300000000004" lon="-93.39929000000001">
    <ele>318.79</ele>
   </trkpt>
   <trkpt lat="37.52973" lon="-93.39994">
    <ele>317.92</ele>
   </trkpt>
   <trkpt lat="37.52915" lon="-93.40068000000001">
    <ele>316.58000000000004</ele>
   </trkpt>
   <trkpt lat="37.528663336171874" lon="-93.40125667415033">
    <ele>316.12</ele>
   </trkpt>
   <trkpt lat="37.52817666953985" lon="-93.40183334077585">
    <ele>315.21999999999997</ele>
   </trkpt>
   <trkpt lat="37.52769" lon="-93.40241">
    <ele>314.34</ele>
   </trkpt>
   <trkpt lat="37.52741" lon="-93.40282">
    <ele>313.47</ele>
   </trkpt>
   <trkpt lat="37.52716" lon="-93.40326">
    <ele>312.70000000000005</ele>
   </trkpt>
   <trkpt lat="37.52682" lon="-93.40397">
    <ele>311.74</ele>
   </trkpt>
   <trkpt lat="37.52653000318992" lon="-93.40484000338492">
    <ele>311.32000000000005</ele>
   </trkpt>
   <trkpt lat="37.52624" lon="-93.40571000000001">
    <ele>310.44000000000005</ele>
   </trkpt>
   <trkpt lat="37.5261" lon="-93.40610000000001">
    <ele>310.22</ele>
   </trkpt>
   <trkpt lat="37.52591" lon="-93.40653">
    <ele>309.36</ele>
   </trkpt>
   <trkpt lat="37.52564" lon="-93.40703">
    <ele>308.95</ele>
   </trkpt>
   <trkpt lat="37.52535" lon="-93.40751">
    <ele>308.75</ele>
   </trkpt>
   <trkpt lat="37.52496000100903" lon="-93.4079800023633">
    <ele>308.31</ele>
   </trkpt>
   <trkpt lat="37.524570000000004" lon="-93.40845">
    <ele>307.46</ele>
   </trkpt>
   <trkpt lat="37.52416000060828" lon="-93.40881000192407">
    <ele>306.76000000000005</ele>
   </trkpt>
   <trkpt lat="37.52375" lon="-93.40917">
    <ele>306.04</ele>
   </trkpt>
   <trkpt lat="37.52334000020907" lon="-93.40944000154848">
    <ele>305.73</ele>
   </trkpt>
   <trkpt lat="37.52293" lon="-93.40971">
    <ele>305.05</ele>
   </trkpt>
   <trkpt lat="37.52241" lon="-93.40999000000001">
    <ele>304.42</ele>
   </trkpt>
   <trkpt lat="37.52201" lon="-93.41015">
    <ele>303.6</ele>
   </trkpt>
   <trkpt lat="37.52160000000001" lon="-93.41034">
    <ele>302.86</ele>
   </trkpt>
   <trkpt lat="37.52143" lon="-93.41039">
    <ele>302.86</ele>
   </trkpt>
   <trkpt lat="37.52087500013419" lon="-93.41060500162276">
    <ele>301.96</ele>
   </trkpt>
   <trkpt lat="37.520320000000005" lon="-93.41082">
    <ele>301.74</ele>
   </trkpt>
   <trkpt lat="37.51966" lon="-93.4111">
    <ele>301.21000000000004</ele>
   </trkpt>
   <trkpt lat="37.51939" lon="-93.41119">
    <ele>301.04</ele>
   </trkpt>
   <trkpt lat="37.51899" lon="-93.41138000000001">
    <ele>300.81</ele>
   </trkpt>
   <trkpt lat="37.51822000040092" lon="-93.41167000297503">
    <ele>300.46</ele>
   </trkpt>
   <trkpt lat="37.517450000000004" lon="-93.41196000000001">
    <ele>300.13</ele>
   </trkpt>
   <trkpt lat="37.516693334161324" lon="-93.41226667287138">
    <ele>299.76000000000005</ele>
   </trkpt>
   <trkpt lat="37.51593666752977" lon="-93.41257333952372">
    <ele>299.72</ele>
   </trkpt>
   <trkpt lat="37.51518" lon="-93.41288">
    <ele>299.73</ele>
   </trkpt>
   <trkpt lat="37.51453000030723" lon="-93.41313000216057">
    <ele>299.92</ele>
   </trkpt>
   <trkpt lat="37.51388" lon="-93.41338">
    <ele>300.27000000000004</ele>
   </trkpt>
   <trkpt lat="37.51322000031118" lon="-93.41367000258356">
    <ele>300.77000000000004</ele>
   </trkpt>
   <trkpt lat="37.51256" lon="-93.41396">
    <ele>301.3</ele>
   </trkpt>
   <trkpt lat="37.512100000000004" lon="-93.41423">
    <ele>301.36</ele>
   </trkpt>
   <trkpt lat="37.51162" lon="-93.41454">
    <ele>301.19</ele>
   </trkpt>
   <trkpt lat="37.51098" lon="-93.41508">
    <ele>300.82000000000005</ele>
   </trkpt>
   <trkpt lat="37.51055000067817" lon="-93.41548000230085">
    <ele>300.22</ele>
   </trkpt>
   <trkpt lat="37.51012" lon="-93.41588">
    <ele>299.72</ele>
   </trkpt>
   <trkpt lat="37.509570000000004" lon="-93.41637">
    <ele>298.77000000000004</ele>
   </trkpt>
   <trkpt lat="37.50911" lon="-93.41682">
    <ele>298.7</ele>
   </trkpt>
   <trkpt lat="37.508720000000004" lon="-93.41714">
    <ele>298.35</ele>
   </trkpt>
   <trkpt lat="37.508500000000005" lon="-93.41736">
    <ele>298.24</ele>
   </trkpt>
   <trkpt lat="37.508100000000006" lon="-93.41772">
    <ele>298.1</ele>
   </trkpt>
   <trkpt lat="37.507540000000006" lon="-93.41826">
    <ele>298.12000000000006</ele>
   </trkpt>
   <trkpt lat="37.507250000000006" lon="-93.41859000000001">
    <ele>298.19</ele>
   </trkpt>
   <trkpt lat="37.507090000000005" lon="-93.41884">
    <ele>298.37</ele>
   </trkpt>
   <trkpt lat="37.506730000000005" lon="-93.41947">
    <ele>298.59000000000003</ele>
   </trkpt>
   <trkpt lat="37.50652" lon="-93.41997">
    <ele>298.50000000000006</ele>
   </trkpt>
   <trkpt lat="37.506350000000005" lon="-93.42060000000001">
    <ele>297.78000000000003</ele>
   </trkpt>
   <trkpt lat="37.5062" lon="-93.42168000000001">
    <ele>297.28000000000003</ele>
   </trkpt>
   <trkpt lat="37.50612000223175" lon="-93.42241000091349">
    <ele>296.78000000000003</ele>
   </trkpt>
   <trkpt lat="37.506040000000006" lon="-93.42314">
    <ele>296.74</ele>
   </trkpt>
   <trkpt lat="37.50595000468972" lon="-93.42419500129002">
    <ele>297.4</ele>
   </trkpt>
   <trkpt lat="37.505860000000006" lon="-93.42525">
    <ele>297.4</ele>
   </trkpt>
   <trkpt lat="37.50574500429293" lon="-93.42626000161438">
    <ele>297.34000000000003</ele>
   </trkpt>
   <trkpt lat="37.505630000000004" lon="-93.42727000000001">
    <ele>297.2</ele>
   </trkpt>
   <trkpt lat="37.505533342750255" lon="-93.42832666935128">
    <ele>297.35</ele>
   </trkpt>
   <trkpt lat="37.5054366760883" lon="-93.42938333596624">
    <ele>298.04</ele>
   </trkpt>
   <trkpt lat="37.505340000000004" lon="-93.43044">
    <ele>297.71000000000004</ele>
   </trkpt>
   <trkpt lat="37.50529" lon="-93.43076">
    <ele>297.44000000000005</ele>
   </trkpt>
   <trkpt lat="37.505280000000006" lon="-93.43097">
    <ele>297.2</ele>
   </trkpt>
   <trkpt lat="37.50521000156351" lon="-93.43158000061403">
    <ele>296.22</ele>
   </trkpt>
   <trkpt lat="37.505140000000004" lon="-93.43219">
    <ele>295.84000000000003</ele>
   </trkpt>
   <trkpt lat="37.505090002592006" lon="-93.43297500060876">
    <ele>295.52</ele>
   </trkpt>
   <trkpt lat="37.50504" lon="-93.43376">
    <ele>294.84000000000003</ele>
   </trkpt>
   <trkpt lat="37.50504500240047" lon="-93.434514999633">
    <ele>294.99</ele>
   </trkpt>
   <trkpt lat="37.505050000000004" lon="-93.43527">
    <ele>294.89000000000004</ele>
   </trkpt>
   <trkpt lat="37.50513000464255" lon="-93.43631999881805">
    <ele>295.66</ele>
   </trkpt>
   <trkpt lat="37.505210000000005" lon="-93.43737">
    <ele>296.12000000000006</ele>
   </trkpt>
   <trkpt lat="37.505346672859964" lon="-93.43822666357349">
    <ele>296.65000000000003</ele>
   </trkpt>
   <trkpt lat="37.50548333953357" lon="-93.43908333028357">
    <ele>296.75</ele>
   </trkpt>
   <trkpt lat="37.50562" lon="-93.43994">
    <ele>296.50000000000006</ele>
   </trkpt>
   <trkpt lat="37.505750000000006" lon="-93.44065">
    <ele>295.57</ele>
   </trkpt>
   <trkpt lat="37.50591000459998" lon="-93.44169499774222">
    <ele>294.77000000000004</ele>
   </trkpt>
   <trkpt lat="37.50607" lon="-93.44274">
    <ele>294.77000000000004</ele>
   </trkpt>
   <trkpt lat="37.50622000321375" lon="-93.44361499816438">
    <ele>294.8</ele>
   </trkpt>
   <trkpt lat="37.506370000000004" lon="-93.44449">
    <ele>295.22</ele>
   </trkpt>
   <trkpt lat="37.50646500191172" lon="-93.44516499907924">
    <ele>295.52</ele>
   </trkpt>
   <trkpt lat="37.50656" lon="-93.44584">
    <ele>296.3</ele>
   </trkpt>
   <trkpt lat="37.50670000563149" lon="-93.44665666365758">
    <ele>296.56000000000006</ele>
   </trkpt>
   <trkpt lat="37.50684000564077" lon="-93.44747333037833">
    <ele>296.35</ele>
   </trkpt>
   <trkpt lat="37.506980000000006" lon="-93.44829000000001">
    <ele>295.53000000000003</ele>
   </trkpt>
   <trkpt lat="37.50714" lon="-93.44938">
    <ele>294.49</ele>
   </trkpt>
   <trkpt lat="37.50729001402047" lon="-93.45029199265447">
    <ele>294.56000000000006</ele>
   </trkpt>
   <trkpt lat="37.507440021029524" lon="-93.45120398897429">
    <ele>294.8</ele>
   </trkpt>
   <trkpt lat="37.507590021027106" lon="-93.45211598895933">
    <ele>295.31</ele>
   </trkpt>
   <trkpt lat="37.50774001401316" lon="-93.45302799260945">
    <ele>295.62000000000006</ele>
   </trkpt>
   <trkpt lat="37.50789" lon="-93.45394">
    <ele>295.84000000000003</ele>
   </trkpt>
   <trkpt lat="37.507985001655" lon="-93.4545649992607">
    <ele>295.86</ele>
   </trkpt>
   <trkpt lat="37.50808" lon="-93.45519">
    <ele>296.08</ele>
   </trkpt>
   <trkpt lat="37.508190000000006" lon="-93.45577">
    <ele>296.8</ele>
   </trkpt>
   <trkpt lat="37.508340000000004" lon="-93.45678000000001">
    <ele>297.49</ele>
   </trkpt>
   <trkpt lat="37.50842" lon="-93.45747">
    <ele>297.57</ele>
   </trkpt>
   <trkpt lat="37.50846500148501" lon="-93.45806499954608">
    <ele>297.7</ele>
   </trkpt>
   <trkpt lat="37.50851" lon="-93.45866000000001">
    <ele>297.84000000000003</ele>
   </trkpt>
   <trkpt lat="37.50854" lon="-93.45976">
    <ele>298.14</ele>
   </trkpt>
   <trkpt lat="37.50853000141802" lon="-93.46034000007177">
    <ele>298.14</ele>
   </trkpt>
   <trkpt lat="37.508520000000004" lon="-93.46092">
    <ele>298.37</ele>
   </trkpt>
   <trkpt lat="37.508480001797786" lon="-93.46157500052372">
    <ele>298.31</ele>
   </trkpt>
   <trkpt lat="37.50844" lon="-93.46223">
    <ele>298.03000000000003</ele>
   </trkpt>
   <trkpt lat="37.508340000000004" lon="-93.46316">
    <ele>296.95000000000005</ele>
   </trkpt>
   <trkpt lat="37.50823000202104" lon="-93.46385500111823">
    <ele>296.16</ele>
   </trkpt>
   <trkpt lat="37.508120000000005" lon="-93.46455">
    <ele>295.86</ele>
   </trkpt>
   <trkpt lat="37.50796000208929" lon="-93.46525000139559">
    <ele>294.89000000000004</ele>
   </trkpt>
   <trkpt lat="37.5078" lon="-93.46595">
    <ele>294.78999999999996</ele>
   </trkpt>
   <trkpt lat="37.507605008648994" lon="-93.46677750652579">
    <ele>294.61</ele>
   </trkpt>
   <trkpt lat="37.507410011525494" lon="-93.46760500872846">
    <ele>295.01000000000005</ele>
   </trkpt>
   <trkpt lat="37.50721500862959" lon="-93.46843250660788">
    <ele>295.87</ele>
   </trkpt>
   <trkpt lat="37.507020000000004" lon="-93.46926">
    <ele>296.12000000000006</ele>
   </trkpt>
   <trkpt lat="37.50694" lon="-93.46947">
    <ele>296.12000000000006</ele>
   </trkpt>
   <trkpt lat="37.506710000000005" lon="-93.47055">
    <ele>295.72</ele>
   </trkpt>
   <trkpt lat="37.506505002718384" lon="-93.47135500226155">
    <ele>295.28999999999996</ele>
   </trkpt>
   <trkpt lat="37.5063" lon="-93.47216">
    <ele>295.06000000000006</ele>
   </trkpt>
   <trkpt lat="37.50621" lon="-93.47258000000001">
    <ele>294.78999999999996</ele>
   </trkpt>
   <trkpt lat="37.505962512701124" lon="-93.47358250999848">
    <ele>294.12000000000006</ele>
   </trkpt>
   <trkpt lat="37.50571501693018" lon="-93.47458501334991">
    <ele>293.15000000000003</ele>
   </trkpt>
   <trkpt lat="37.50546751268728" lon="-93.47558751005417">
    <ele>291.75</ele>
   </trkpt>
   <trkpt lat="37.50522" lon="-93.47659">
    <ele>291.24</ele>
   </trkpt>
   <trkpt lat="37.50518" lon="-93.47683">
    <ele>291.03000000000003</ele>
   </trkpt>
   <trkpt lat="37.505050000000004" lon="-93.47727">
    <ele>290.7</ele>
   </trkpt>
   <trkpt lat="37.504830000000005" lon="-93.47822000000001">
    <ele>289.93</ele>
   </trkpt>
   <trkpt lat="37.504720000000006" lon="-93.47861">
    <ele>289.74</ele>
   </trkpt>
   <trkpt lat="37.50435" lon="-93.47955">
    <ele>288.09000000000003</ele>
   </trkpt>
   <trkpt lat="37.503980000000006" lon="-93.48022">
    <ele>287.44</ele>
   </trkpt>
   <trkpt lat="37.503640000000004" lon="-93.48071">
    <ele>286.67</ele>
   </trkpt>
   <trkpt lat="37.503240000000005" lon="-93.48118000000001">
    <ele>285.76</ele>
   </trkpt>
   <trkpt lat="37.502750000000006" lon="-93.48165">
    <ele>285.3</ele>
   </trkpt>
   <trkpt lat="37.50224" lon="-93.48205">
    <ele>284.19</ele>
   </trkpt>
   <trkpt lat="37.50164" lon="-93.48237">
    <ele>283.77000000000004</ele>
   </trkpt>
   <trkpt lat="37.50092666726542" lon="-93.48264333856783">
    <ele>283.39000000000004</ele>
   </trkpt>
   <trkpt lat="37.500213333901044" lon="-93.48291667191296">
    <ele>284.19</ele>
   </trkpt>
   <trkpt lat="37.499500000000005" lon="-93.48319000000001">
    <ele>284.78000000000003</ele>
   </trkpt>
   <trkpt lat="37.498715001213064" lon="-93.48350250986402">
    <ele>284.82</ele>
   </trkpt>
   <trkpt lat="37.49793000160292" lon="-93.48381501315757">
    <ele>284.33000000000004</ele>
   </trkpt>
   <trkpt lat="37.49714500116961" lon="-93.48412750988099">
    <ele>283.35</ele>
   </trkpt>
   <trkpt lat="37.49636" lon="-93.48444">
    <ele>282.55</ele>
   </trkpt>
   <trkpt lat="37.49573" lon="-93.48467000000001">
    <ele>281.87</ele>
   </trkpt>
   <trkpt lat="37.494910000000004" lon="-93.48502">
    <ele>280.52000000000004</ele>
   </trkpt>
   <trkpt lat="37.49441000010965" lon="-93.48520500125136">
    <ele>280.42</ele>
   </trkpt>
   <trkpt lat="37.49391" lon="-93.48539000000001">
    <ele>279.05</ele>
   </trkpt>
   <trkpt lat="37.49311" lon="-93.48572">
    <ele>278.38</ele>
   </trkpt>
   <trkpt lat="37.49242" lon="-93.48596">
    <ele>277.22</ele>
   </trkpt>
   <trkpt lat="37.49184" lon="-93.48622">
    <ele>276.05</ele>
   </trkpt>
   <trkpt lat="37.491490000000006" lon="-93.48641">
    <ele>275.68</ele>
   </trkpt>
   <trkpt lat="37.491020000000006" lon="-93.48675">
    <ele>275.27</ele>
   </trkpt>
   <trkpt lat="37.490750000000006" lon="-93.48700000000001">
    <ele>275.04</ele>
   </trkpt>
   <trkpt lat="37.490590000000005" lon="-93.48718000000001">
    <ele>274.97</ele>
   </trkpt>
   <trkpt lat="37.49010000559245" lon="-93.48784501308491">
    <ele>274.78000000000003</ele>
   </trkpt>
   <trkpt lat="37.489610007457514" lon="-93.48851001744507">
    <ele>274.73</ele>
   </trkpt>
   <trkpt lat="37.489120005595304" lon="-93.48917501308071">
    <ele>274.76</ele>
   </trkpt>
   <trkpt lat="37.48863" lon="-93.48984">
    <ele>274.89000000000004</ele>
   </trkpt>
   <trkpt lat="37.48821" lon="-93.49029">
    <ele>274.88</ele>
   </trkpt>
   <trkpt lat="37.487970000000004" lon="-93.49053">
    <ele>274.98</ele>
   </trkpt>
   <trkpt lat="37.48774" lon="-93.4907">
    <ele>275.04</ele>
   </trkpt>
   <trkpt lat="37.487550000000006" lon="-93.49087">
    <ele>275.04</ele>
   </trkpt>
   <trkpt lat="37.48698" lon="-93.49124">
    <ele>275.15</ele>
   </trkpt>
   <trkpt lat="37.48639" lon="-93.49152000000001">
    <ele>275.12</ele>
   </trkpt>
   <trkpt lat="37.485760000000006" lon="-93.49170000000001">
    <ele>275.37</ele>
   </trkpt>
   <trkpt lat="37.4853" lon="-93.49179000000001">
    <ele>275.43</ele>
   </trkpt>
   <trkpt lat="37.485040000000005" lon="-93.49181">
    <ele>275.57000000000005</ele>
   </trkpt>
   <trkpt lat="37.48429" lon="-93.49178">
    <ele>275.79</ele>
   </trkpt>
   <trkpt lat="37.483430000000006" lon="-93.49170000000001">
    <ele>276.0</ele>
   </trkpt>
   <trkpt lat="37.482940000000006" lon="-93.49163">
    <ele>276.67</ele>
   </trkpt>
   <trkpt lat="37.482600000000005" lon="-93.49163">
    <ele>276.07000000000005</ele>
   </trkpt>
   <trkpt lat="37.48196499982255" lon="-93.49154999929436">
    <ele>276.26</ele>
   </trkpt>
   <trkpt lat="37.48133" lon="-93.49147">
    <ele>276.56</ele>
   </trkpt>
   <trkpt lat="37.48073" lon="-93.49146">
    <ele>277.07000000000005</ele>
   </trkpt>
   <trkpt lat="37.48044" lon="-93.49141">
    <ele>277.21</ele>
   </trkpt>
   <trkpt lat="37.48028" lon="-93.49137">
    <ele>277.58000000000004</ele>
   </trkpt>
   <trkpt lat="37.479560000000006" lon="-93.49132">
    <ele>278.2</ele>
   </trkpt>
   <trkpt lat="37.478880000000004" lon="-93.49142">
    <ele>279.18</ele>
   </trkpt>
   <trkpt lat="37.47856" lon="-93.4915">
    <ele>279.44</ele>
   </trkpt>
   <trkpt lat="37.47796" lon="-93.49172">
    <ele>279.88</ele>
   </trkpt>
   <trkpt lat="37.477520000000005" lon="-93.49192000000001">
    <ele>280.46000000000004</ele>
   </trkpt>
   <trkpt lat="37.47719" lon="-93.49213">
    <ele>280.74000000000007</ele>
   </trkpt>
   <trkpt lat="37.47681" lon="-93.49244">
    <ele>281.32</ele>
   </trkpt>
   <trkpt lat="37.4761" lon="-93.49307">
    <ele>282.01000000000005</ele>
   </trkpt>
   <trkpt lat="37.4757350004847" lon="-93.49345000198474">
    <ele>282.51000000000005</ele>
   </trkpt>
   <trkpt lat="37.475370000000005" lon="-93.49383">
    <ele>282.75</ele>
   </trkpt>
   <trkpt lat="37.47487000086931" lon="-93.49430000320218">
    <ele>283.8</ele>
   </trkpt>
   <trkpt lat="37.47437" lon="-93.49477">
    <ele>284.69</ele>
   </trkpt>
   <trkpt lat="37.474360000000004" lon="-93.49477">
    <ele>284.69</ele>
   </trkpt>
   <trkpt lat="37.47392500074562" lon="-93.49522000273045">
    <ele>285.29</ele>
   </trkpt>
   <trkpt lat="37.473490000000005" lon="-93.49567">
    <ele>285.94</ele>
   </trkpt>
   <trkpt lat="37.473080000481964" lon="-93.49607000238174">
    <ele>286.66</ele>
   </trkpt>
   <trkpt lat="37.47267" lon="-93.49647">
    <ele>286.90999999999997</ele>
   </trkpt>
   <trkpt lat="37.47204" lon="-93.49715">
    <ele>287.33000000000004</ele>
   </trkpt>
   <trkpt lat="37.47164" lon="-93.49778">
    <ele>286.75</ele>
   </trkpt>
   <trkpt lat="37.471250000000005" lon="-93.49862">
    <ele>287.88</ele>
   </trkpt>
   <trkpt lat="37.47106" lon="-93.49926">
    <ele>287.65000000000003</ele>
   </trkpt>
   <trkpt lat="37.47094500123491" lon="-93.49981000103594">
    <ele>287.68000000000006</ele>
   </trkpt>
   <trkpt lat="37.47083000000001" lon="-93.50036">
    <ele>287.85</ele>
   </trkpt>
   <trkpt lat="37.47065500395313" lon="-93.50133000233383">
    <ele>288.64</ele>
   </trkpt>
   <trkpt lat="37.47048" lon="-93.5023">
    <ele>288.98</ele>
   </trkpt>
   <trkpt lat="37.47043" lon="-93.50269">
    <ele>289.51000000000005</ele>
   </trkpt>
   <trkpt lat="37.470200000000006" lon="-93.50351">
    <ele>290.40999999999997</ele>
   </trkpt>
   <trkpt lat="37.46989000000001" lon="-93.50426">
    <ele>291.44000000000005</ele>
   </trkpt>
   <trkpt lat="37.46956" lon="-93.50475">
    <ele>292.01000000000005</ele>
   </trkpt>
   <trkpt lat="37.469120000000004" lon="-93.50522000000001">
    <ele>292.48</ele>
   </trkpt>
   <trkpt lat="37.46895" lon="-93.50538">
    <ele>292.65000000000003</ele>
   </trkpt>
   <trkpt lat="37.468410000000006" lon="-93.50574">
    <ele>293.7</ele>
   </trkpt>
   <trkpt lat="37.46826" lon="-93.50583">
    <ele>293.7</ele>
   </trkpt>
   <trkpt lat="37.467740000000006" lon="-93.50605">
    <ele>294.19</ele>
   </trkpt>
   <trkpt lat="37.46717" lon="-93.50619">
    <ele>294.90000000000003</ele>
   </trkpt>
   <trkpt lat="37.46645499999415" lon="-93.50627500081725">
    <ele>295.43</ele>
   </trkpt>
   <trkpt lat="37.465740000000004" lon="-93.50636">
    <ele>296.58</ele>
   </trkpt>
   <trkpt lat="37.465520000000005" lon="-93.50641">
    <ele>296.58</ele>
   </trkpt>
   <trkpt lat="37.46506000014835" lon="-93.5064650003222">
    <ele>297.02</ele>
   </trkpt>
   <trkpt lat="37.464600000000004" lon="-93.50652000000001">
    <ele>297.02</ele>
   </trkpt>
   <trkpt lat="37.46407000003742" lon="-93.50661000063742">
    <ele>298.04</ele>
   </trkpt>
   <trkpt lat="37.46354" lon="-93.50670000000001">
    <ele>298.65000000000003</ele>
   </trkpt>
   <trkpt lat="37.462910000015796" lon="-93.5067833347433">
    <ele>299.06000000000006</ele>
   </trkpt>
   <trkpt lat="37.46227999997306" lon="-93.50686666808227">
    <ele>299.51</ele>
   </trkpt>
   <trkpt lat="37.461650000000006" lon="-93.50695">
    <ele>300.01</ele>
   </trkpt>
   <trkpt lat="37.460820000000005" lon="-93.50713">
    <ele>300.69</ele>
   </trkpt>
   <trkpt lat="37.460190000000004" lon="-93.50739">
    <ele>301.43</ele>
   </trkpt>
   <trkpt lat="37.459880000000005" lon="-93.50758">
    <ele>301.6</ele>
   </trkpt>
   <trkpt lat="37.459450000000004" lon="-93.50793">
    <ele>302.19</ele>
   </trkpt>
   <trkpt lat="37.45881750353125" lon="-93.50845751337283">
    <ele>303.22</ele>
   </trkpt>
   <trkpt lat="37.45818500471782" lon="-93.50898501782225">
    <ele>303.41</ele>
   </trkpt>
   <trkpt lat="37.45755250355981" lon="-93.50951251334862">
    <ele>304.09000000000003</ele>
   </trkpt>
   <trkpt lat="37.456920000000004" lon="-93.51004">
    <ele>304.58</ele>
   </trkpt>
   <trkpt lat="37.45623000400588" lon="-93.51060251556333">
    <ele>305.20000000000005</ele>
   </trkpt>
   <trkpt lat="37.45554000534567" lon="-93.5111650207471">
    <ele>305.94000000000005</ele>
   </trkpt>
   <trkpt lat="37.4548500040195" lon="-93.51172751555173">
    <ele>306.63</ele>
   </trkpt>
   <trkpt lat="37.45416" lon="-93.51229000000001">
    <ele>307.50000000000006</ele>
   </trkpt>
   <trkpt lat="37.45364500083577" lon="-93.5127300030124">
    <ele>308.14000000000004</ele>
   </trkpt>
   <trkpt lat="37.45313" lon="-93.51317">
    <ele>308.64000000000004</ele>
   </trkpt>
   <trkpt lat="37.452380000000005" lon="-93.51375">
    <ele>310.20000000000005</ele>
   </trkpt>
   <trkpt lat="37.451950000000004" lon="-93.51398">
    <ele>311.29</ele>
   </trkpt>
   <trkpt lat="37.451510000000006" lon="-93.5142">
    <ele>312.1</ele>
   </trkpt>
   <trkpt lat="37.451055000124676" lon="-93.51431000065129">
    <ele>312.88000000000005</ele>
   </trkpt>
   <trkpt lat="37.4506" lon="-93.51442">
    <ele>313.52000000000004</ele>
   </trkpt>
   <trkpt lat="37.450190000000006" lon="-93.51447">
    <ele>314.27000000000004</ele>
   </trkpt>
   <trkpt lat="37.44955" lon="-93.51443">
    <ele>314.71000000000004</ele>
   </trkpt>
   <trkpt lat="37.449160000000006" lon="-93.51434">
    <ele>315.35</ele>
   </trkpt>
   <trkpt lat="37.44883" lon="-93.51429">
    <ele>315.62</ele>
   </trkpt>
   <trkpt lat="37.448840000000004" lon="-93.51429">
    <ele>315.62</ele>
   </trkpt>
   <trkpt lat="37.44798000022374" lon="-93.51415333020171">
    <ele>316.56</ele>
   </trkpt>
   <trkpt lat="37.44712000029009" lon="-93.51401666354565">
    <ele>317.6</ele>
   </trkpt>
   <trkpt lat="37.44626" lon="-93.51388000000001">
    <ele>319.27000000000004</ele>
   </trkpt>
   <trkpt lat="37.445575000036534" lon="-93.51379999926868">
    <ele>320.79</ele>
   </trkpt>
   <trkpt lat="37.44489" lon="-93.51372">
    <ele>321.47</ele>
   </trkpt>
   <trkpt lat="37.444210000000005" lon="-93.51371">
    <ele>322.41</ele>
   </trkpt>
   <trkpt lat="37.443381666946166" lon="-93.51382333960534">
    <ele>323.23</ele>
   </trkpt>
   <trkpt lat="37.4425533337841" lon="-93.5139366767012">
    <ele>324.85</ele>
   </trkpt>
   <trkpt lat="37.44172500051381" lon="-93.51405001128775">
    <ele>326.49</ele>
   </trkpt>
   <trkpt lat="37.44089666713533" lon="-93.51416334336508">
    <ele>326.99</ele>
   </trkpt>
   <trkpt lat="37.44006833364863" lon="-93.51427667293333">
    <ele>328.68</ele>
   </trkpt>
   <trkpt lat="37.439240000000005" lon="-93.51439">
    <ele>329.62</ele>
   </trkpt>
   <trkpt lat="37.43859666668551" lon="-93.51439333339057">
    <ele>330.94</ele>
   </trkpt>
   <trkpt lat="37.43795333337092" lon="-93.5143966667238">
    <ele>332.03000000000003</ele>
   </trkpt>
   <trkpt lat="37.437310000000004" lon="-93.51440000000001">
    <ele>332.35</ele>
   </trkpt>
   <trkpt lat="37.43678000006789" lon="-93.51434499961621">
    <ele>333.53000000000003</ele>
   </trkpt>
   <trkpt lat="37.43625" lon="-93.51429">
    <ele>334.25000000000006</ele>
   </trkpt>
   <trkpt lat="37.43541500022471" lon="-93.51414749522519">
    <ele>335.76</ele>
   </trkpt>
   <trkpt lat="37.43458000027834" lon="-93.51400499363005">
    <ele>337.18</ele>
   </trkpt>
   <trkpt lat="37.43374500016092" lon="-93.51386249521447">
    <ele>337.98</ele>
   </trkpt>
   <trkpt lat="37.43291" lon="-93.51372">
    <ele>338.97</ele>
   </trkpt>
   <trkpt lat="37.43224" lon="-93.51363">
    <ele>339.84000000000003</ele>
   </trkpt>
   <trkpt lat="37.431700000000006" lon="-93.51366">
    <ele>340.84000000000003</ele>
   </trkpt>
   <trkpt lat="37.43122" lon="-93.51375">
    <ele>341.49</ele>
   </trkpt>
   <trkpt lat="37.430670000000006" lon="-93.51394">
    <ele>342.56</ele>
   </trkpt>
   <trkpt lat="37.43009" lon="-93.5143">
    <ele>343.41</ele>
   </trkpt>
   <trkpt lat="37.429460000000006" lon="-93.51487">
    <ele>344.83000000000004</ele>
   </trkpt>
   <trkpt lat="37.429010000000005" lon="-93.51545">
    <ele>345.53</ele>
   </trkpt>
   <trkpt lat="37.42859" lon="-93.51608">
    <ele>346.41</ele>
   </trkpt>
   <trkpt lat="37.428250000000006" lon="-93.51684">
    <ele>347.35</ele>
   </trkpt>
   <trkpt lat="37.42794" lon="-93.5176">
    <ele>347.96000000000004</ele>
   </trkpt>
   <trkpt lat="37.42777" lon="-93.51842">
    <ele>349.08</ele>
   </trkpt>
   <trkpt lat="37.42768" lon="-93.51908">
    <ele>349.65000000000003</ele>
   </trkpt>
   <trkpt lat="37.427640000000004" lon="-93.51957">
    <ele>350.66</ele>
   </trkpt>
   <trkpt lat="37.42766" lon="-93.52034">
    <ele>351.86</ele>
   </trkpt>
   <trkpt lat="37.42773000223627" lon="-93.52107499890278">
    <ele>352.42</ele>
   </trkpt>
   <trkpt lat="37.427800000000005" lon="-93.52181">
    <ele>353.45000000000005</ele>
   </trkpt>
   <trkpt lat="37.4278300014353" lon="-93.52239499964696">
    <ele>354.25</ele>
   </trkpt>
   <trkpt lat="37.42786" lon="-93.52298">
    <ele>355.16</ele>
   </trkpt>
   <trkpt lat="37.42781" lon="-93.52366">
    <ele>355.65000000000003</ele>
   </trkpt>
   <trkpt lat="37.42768" lon="-93.52455">
    <ele>356.69</ele>
   </trkpt>
   <trkpt lat="37.427510000000005" lon="-93.52522">
    <ele>358.17</ele>
   </trkpt>
   <trkpt lat="37.42732" lon="-93.52577000000001">
    <ele>358.51000000000005</ele>
   </trkpt>
   <trkpt lat="37.427110000000006" lon="-93.52629">
    <ele>359.47</ele>
   </trkpt>
   <trkpt lat="37.42685" lon="-93.52678">
    <ele>360.36</ele>
   </trkpt>
   <trkpt lat="37.42658" lon="-93.52723">
    <ele>360.81</ele>
   </trkpt>
   <trkpt lat="37.42622" lon="-93.52768">
    <ele>361.13</ele>
   </trkpt>
   <trkpt lat="37.42582" lon="-93.52809">
    <ele>361.54</ele>
   </trkpt>
   <trkpt lat="37.425580000000004" lon="-93.52831">
    <ele>361.8</ele>
   </trkpt>
   <trkpt lat="37.425430000000006" lon="-93.52848">
    <ele>362.26</ele>
   </trkpt>
   <trkpt lat="37.42484666883789" lon="-93.52899000796403">
    <ele>362.14</ele>
   </trkpt>
   <trkpt lat="37.42426333548483" lon="-93.52950000798118">
    <ele>361.69</ele>
   </trkpt>
   <trkpt lat="37.423680000000004" lon="-93.53001">
    <ele>361.73</ele>
   </trkpt>
   <trkpt lat="37.422997511333975" lon="-93.53063003955619">
    <ele>360.63</ele>
   </trkpt>
   <trkpt lat="37.422315019429725" lon="-93.53125006780944">
    <ele>360.29</ele>
   </trkpt>
   <trkpt lat="37.42163252428738" lon="-93.53187008476017">
    <ele>360.2</ele>
   </trkpt>
   <trkpt lat="37.42095002590709" lon="-93.53249009040887">
    <ele>360.23</ele>
   </trkpt>
   <trkpt lat="37.42026752428899" lon="-93.53311008475595">
    <ele>360.24</ele>
   </trkpt>
   <trkpt lat="37.419585019433214" lon="-93.53373006780181">
    <ele>360.28000000000003</ele>
   </trkpt>
   <trkpt lat="37.418902511339894" lon="-93.53435003954691">
    <ele>360.42</ele>
   </trkpt>
   <trkpt lat="37.418220000000005" lon="-93.53497">
    <ele>360.45000000000005</ele>
   </trkpt>
   <trkpt lat="37.41757000120167" lon="-93.53548500440264">
    <ele>360.67</ele>
   </trkpt>
   <trkpt lat="37.416920000000005" lon="-93.536">
    <ele>361.84000000000003</ele>
   </trkpt>
   <trkpt lat="37.41618000056531" lon="-93.53633500326798">
    <ele>362.51000000000005</ele>
   </trkpt>
   <trkpt lat="37.415440000000004" lon="-93.53667">
    <ele>363.05</ele>
   </trkpt>
   <trkpt lat="37.414895000342945" lon="-93.5368300010952">
    <ele>363.02</ele>
   </trkpt>
   <trkpt lat="37.414350000000006" lon="-93.53699">
    <ele>362.56000000000006</ele>
   </trkpt>
   <trkpt lat="37.413795000224496" lon="-93.53703500031592">
    <ele>362.3</ele>
   </trkpt>
   <trkpt lat="37.41324" lon="-93.53708">
    <ele>362.02</ele>
   </trkpt>
   <trkpt lat="37.412614999954585" lon="-93.53698999923758">
    <ele>362.39000000000004</ele>
   </trkpt>
   <trkpt lat="37.41199" lon="-93.5369">
    <ele>363.23</ele>
   </trkpt>
   <trkpt lat="37.411509999979494" lon="-93.53675999907287">
    <ele>363.97</ele>
   </trkpt>
   <trkpt lat="37.411030000000004" lon="-93.53662000000001">
    <ele>364.79</ele>
   </trkpt>
   <trkpt lat="37.41066" lon="-93.53647000000001">
    <ele>364.83000000000004</ele>
   </trkpt>
   <trkpt lat="37.40988556085456" lon="-93.53607330052813">
    <ele>364.82000000000005</ele>
   </trkpt>
   <trkpt lat="37.409111120383756" lon="-93.53567660925823">
    <ele>364.2</ele>
   </trkpt>
   <trkpt lat="37.408336678587645" lon="-93.53527992618989">
    <ele>362.85</ele>
   </trkpt>
   <trkpt lat="37.407562235466294" lon="-93.53488325132274">
    <ele>362.2900000000001</ele>
   </trkpt>
   <trkpt lat="37.40678779101976" lon="-93.53448658465639">
    <ele>362.77000000000004</ele>
   </trkpt>
   <trkpt lat="37.40601334524813" lon="-93.53408992619048">
    <ele>363.43</ele>
   </trkpt>
   <trkpt lat="37.40523889815144" lon="-93.5336932759246">
    <ele>363.63</ele>
   </trkpt>
   <trkpt lat="37.404464449729765" lon="-93.53329663385837">
    <ele>363.36</ele>
   </trkpt>
   <trkpt lat="37.403690000000005" lon="-93.53290000000001">
    <ele>362.77000000000004</ele>
   </trkpt>
   <trkpt lat="37.40290813497982" lon="-93.53250243778946">
    <ele>362.55</ele>
   </trkpt>
   <trkpt lat="37.402126268628564" lon="-93.53210488387545">
    <ele>361.65000000000003</ele>
   </trkpt>
   <trkpt lat="37.40134440094634" lon="-93.53170733825756">
    <ele>360.57000000000005</ele>
   </trkpt>
   <trkpt lat="37.4005625319332" lon="-93.53130980093539">
    <ele>359.21000000000004</ele>
   </trkpt>
   <trkpt lat="37.39978066158919" lon="-93.53091227190858">
    <ele>358.14</ele>
   </trkpt>
   <trkpt lat="37.398998789914394" lon="-93.53051475117671">
    <ele>357.65000000000003</ele>
   </trkpt>
   <trkpt lat="37.39821691690887" lon="-93.5301172387394">
    <ele>358.28000000000003</ele>
   </trkpt>
   <trkpt lat="37.397435042572695" lon="-93.52971973459624">
    <ele>358.84000000000003</ele>
   </trkpt>
   <trkpt lat="37.3966531669059" lon="-93.52932223874686">
    <ele>359.52</ele>
   </trkpt>
   <trkpt lat="37.395871289908605" lon="-93.52892475119084">
    <ele>360.12000000000006</ele>
   </trkpt>
   <trkpt lat="37.39508941158084" lon="-93.52852727192781">
    <ele>360.77000000000004</ele>
   </trkpt>
   <trkpt lat="37.39430753192267" lon="-93.52812980095736">
    <ele>361.38000000000005</ele>
   </trkpt>
   <trkpt lat="37.393525650934166" lon="-93.52773233827911">
    <ele>361.35</ele>
   </trkpt>
   <trkpt lat="37.3927437686154" lon="-93.52733488389264">
    <ele>360.72</ele>
   </trkpt>
   <trkpt lat="37.39196188496643" lon="-93.52693743779759">
    <ele>360.01000000000005</ele>
   </trkpt>
   <trkpt lat="37.391180000000006" lon="-93.52654000000001">
    <ele>360.3</ele>
   </trkpt>
   <trkpt lat="37.39035333928129" lon="-93.52611996295337">
    <ele>361.21000000000004</ele>
   </trkpt>
   <trkpt lat="37.38952667707696" lon="-93.52569993517025">
    <ele>361.58</ele>
   </trkpt>
   <trkpt lat="37.38870001338707" lon="-93.5252799166502">
    <ele>361.99</ele>
   </trkpt>
   <trkpt lat="37.38787334821172" lon="-93.52485990739275">
    <ele>362.06000000000006</ele>
   </trkpt>
   <trkpt lat="37.38704668155097" lon="-93.52443990739744">
    <ele>362.75</ele>
   </trkpt>
   <trkpt lat="37.38622001340494" lon="-93.5240199166638">
    <ele>363.36</ele>
   </trkpt>
   <trkpt lat="37.38539334377366" lon="-93.52359993519138">
    <ele>364.02</ele>
   </trkpt>
   <trkpt lat="37.38456667265721" lon="-93.5231799629797">
    <ele>363.52</ele>
   </trkpt>
   <trkpt lat="37.38374" lon="-93.52276">
    <ele>362.73</ele>
   </trkpt>
   <trkpt lat="37.38318" lon="-93.52244">
    <ele>362.46</ele>
   </trkpt>
   <trkpt lat="37.38262" lon="-93.52204">
    <ele>362.65000000000003</ele>
   </trkpt>
   <trkpt lat="37.38221" lon="-93.52172">
    <ele>363.04</ele>
   </trkpt>
   <trkpt lat="37.38154" lon="-93.52109">
    <ele>363.17</ele>
   </trkpt>
   <trkpt lat="37.381040000000006" lon="-93.52056">
    <ele>362.94000000000005</ele>
   </trkpt>
   <trkpt lat="37.38047" lon="-93.51988">
    <ele>362.57</ele>
   </trkpt>
   <trkpt lat="37.37997" lon="-93.51917">
    <ele>361.47</ele>
   </trkpt>
   <trkpt lat="37.37951" lon="-93.51843000000001">
    <ele>360.61</ele>
   </trkpt>
   <trkpt lat="37.37915" lon="-93.5177">
    <ele>359.36</ele>
   </trkpt>
   <trkpt lat="37.378703341241376" lon="-93.51672998841542">
    <ele>358.65000000000003</ele>
   </trkpt>
   <trkpt lat="37.378256674560596" lon="-93.51575998838497">
    <ele>358.62000000000006</ele>
   </trkpt>
   <trkpt lat="37.377810000000004" lon="-93.51479">
    <ele>358.45000000000005</ele>
   </trkpt>
   <trkpt lat="37.377381174798316" lon="-93.51384657497017">
    <ele>357.50000000000006</ele>
   </trkpt>
   <trkpt lat="37.37695234210289" lon="-93.51290316072858">
    <ele>356.7</ele>
   </trkpt>
   <trkpt lat="37.37652350191394" lon="-93.51195975727516">
    <ele>356.89000000000004</ele>
   </trkpt>
   <trkpt lat="37.37609465423163" lon="-93.5110163646098">
    <ele>357.22</ele>
   </trkpt>
   <trkpt lat="37.3756657990562" lon="-93.5100729827324">
    <ele>357.67</ele>
   </trkpt>
   <trkpt lat="37.37523693638783" lon="-93.50912961164282">
    <ele>358.88000000000005</ele>
   </trkpt>
   <trkpt lat="37.374808066226734" lon="-93.508186251341">
    <ele>360.08</ele>
   </trkpt>
   <trkpt lat="37.37437918857311" lon="-93.50724290182683">
    <ele>361.05</ele>
   </trkpt>
   <trkpt lat="37.37395030342718" lon="-93.50629956310019">
    <ele>360.81</ele>
   </trkpt>
   <trkpt lat="37.37352141078909" lon="-93.50535623516097">
    <ele>360.13</ele>
   </trkpt>
   <trkpt lat="37.373092510659085" lon="-93.50441291800912">
    <ele>359.23</ele>
   </trkpt>
   <trkpt lat="37.372663603037374" lon="-93.50346961164449">
    <ele>358.39000000000004</ele>
   </trkpt>
   <trkpt lat="37.37223468792415" lon="-93.50252631606699">
    <ele>357.24</ele>
   </trkpt>
   <trkpt lat="37.37180576531958" lon="-93.50158303127654">
    <ele>355.99</ele>
   </trkpt>
   <trkpt lat="37.37137683522393" lon="-93.500639757273">
    <ele>355.33000000000004</ele>
   </trkpt>
   <trkpt lat="37.37094789763735" lon="-93.4996964940563">
    <ele>355.3</ele>
   </trkpt>
   <trkpt lat="37.370518952560055" lon="-93.4987532416263">
    <ele>355.69</ele>
   </trkpt>
   <trkpt lat="37.370090000000005" lon="-93.49781">
    <ele>356.34000000000003</ele>
   </trkpt>
   <trkpt lat="37.36984500101759" lon="-93.49731999841357">
    <ele>356.37</ele>
   </trkpt>
   <trkpt lat="37.369600000000005" lon="-93.49683">
    <ele>356.3</ele>
   </trkpt>
   <trkpt lat="37.3691" lon="-93.49607">
    <ele>355.81</ele>
   </trkpt>
   <trkpt lat="37.368610000000004" lon="-93.49537000000001">
    <ele>355.73</ele>
   </trkpt>
   <trkpt lat="37.36809" lon="-93.49477">
    <ele>355.57000000000005</ele>
   </trkpt>
   <trkpt lat="37.36759" lon="-93.49424">
    <ele>355.43</ele>
   </trkpt>
   <trkpt lat="37.366960000000006" lon="-93.49369">
    <ele>355.05</ele>
   </trkpt>
   <trkpt lat="37.36627" lon="-93.49316">
    <ele>354.6</ele>
   </trkpt>
   <trkpt lat="37.365830000217414" lon="-93.49287499824811">
    <ele>354.42</ele>
   </trkpt>
   <trkpt lat="37.365390000000005" lon="-93.49259">
    <ele>354.26</ele>
   </trkpt>
   <trkpt lat="37.3649400001208" lon="-93.49237999871035">
    <ele>353.99</ele>
   </trkpt>
   <trkpt lat="37.36449" lon="-93.49217">
    <ele>353.66</ele>
   </trkpt>
   <trkpt lat="37.36368500041524" lon="-93.49183499638238">
    <ele>352.90000000000003</ele>
   </trkpt>
   <trkpt lat="37.362880000000004" lon="-93.4915">
    <ele>351.8</ele>
   </trkpt>
   <trkpt lat="37.3620735775198" lon="-93.49116638197552">
    <ele>351.0</ele>
   </trkpt>
   <trkpt lat="37.36126715410267" lon="-93.4908327711212">
    <ele>350.90000000000003</ele>
   </trkpt>
   <trkpt lat="37.36046072974864" lon="-93.49049916743671">
    <ele>351.39000000000004</ele>
   </trkpt>
   <trkpt lat="37.35965430445775" lon="-93.49016557092165">
    <ele>351.85</ele>
   </trkpt>
   <trkpt lat="37.35884787823006" lon="-93.48983198157572">
    <ele>352.77000000000004</ele>
   </trkpt>
   <trkpt lat="37.3580414510656" lon="-93.48949839939851">
    <ele>352.62000000000006</ele>
   </trkpt>
   <trkpt lat="37.357235022964446" lon="-93.48916482438975">
    <ele>351.85</ele>
   </trkpt>
   <trkpt lat="37.35642859392662" lon="-93.48883125654898">
    <ele>351.19</ele>
   </trkpt>
   <trkpt lat="37.35562216395219" lon="-93.4884976958759">
    <ele>350.81</ele>
   </trkpt>
   <trkpt lat="37.35481573304118" lon="-93.48816414237018">
    <ele>349.95000000000005</ele>
   </trkpt>
   <trkpt lat="37.35400930119366" lon="-93.48783059603142">
    <ele>349.15000000000003</ele>
   </trkpt>
   <trkpt lat="37.35320286840966" lon="-93.48749705685928">
    <ele>348.57000000000005</ele>
   </trkpt>
   <trkpt lat="37.35239643468923" lon="-93.48716352485341">
    <ele>348.16</ele>
   </trkpt>
   <trkpt lat="37.35159" lon="-93.48683000000001">
    <ele>348.46999999999997</ele>
   </trkpt>
   <trkpt lat="37.35082000368941" lon="-93.48651797120155">
    <ele>347.7</ele>
   </trkpt>
   <trkpt lat="37.35005000655929" lon="-93.48620594880374">
    <ele>346.18000000000006</ele>
   </trkpt>
   <trkpt lat="37.3492800086097" lon="-93.48589393280629">
    <ele>345.31</ele>
   </trkpt>
   <trkpt lat="37.34851000984068" lon="-93.48558192320887">
    <ele>345.03</ele>
   </trkpt>
   <trkpt lat="37.34774001025225" lon="-93.48526992001118">
    <ele>345.18</ele>
   </trkpt>
   <trkpt lat="37.346970009844455" lon="-93.48495792321295">
    <ele>346.11</ele>
   </trkpt>
   <trkpt lat="37.346200008617345" lon="-93.48464593281385">
    <ele>347.18000000000006</ele>
   </trkpt>
   <trkpt lat="37.34543000657095" lon="-93.48433394881357">
    <ele>348.38</ele>
   </trkpt>
   <trkpt lat="37.344660003705314" lon="-93.48402197121182">
    <ele>349.13000000000005</ele>
   </trkpt>
   <trkpt lat="37.34389" lon="-93.48371">
    <ele>349.11</ele>
   </trkpt>
   <trkpt lat="37.34347" lon="-93.48347000000001">
    <ele>349.07000000000005</ele>
   </trkpt>
   <trkpt lat="37.343050000000005" lon="-93.48326">
    <ele>348.81</ele>
   </trkpt>
   <trkpt lat="37.342270000000006" lon="-93.48277">
    <ele>347.93</ele>
   </trkpt>
   <trkpt lat="37.3415" lon="-93.48223">
    <ele>347.54</ele>
   </trkpt>
   <trkpt lat="37.34079000164523" lon="-93.48161499423217">
    <ele>347.74000000000007</ele>
   </trkpt>
   <trkpt lat="37.34008" lon="-93.48100000000001">
    <ele>348.54</ele>
   </trkpt>
   <trkpt lat="37.33970500042469" lon="-93.48062999800315">
    <ele>349.09000000000003</ele>
   </trkpt>
   <trkpt lat="37.339330000000004" lon="-93.48026">
    <ele>350.18000000000006</ele>
   </trkpt>
   <trkpt lat="37.338850002719404" lon="-93.47969332611007">
    <ele>350.79</ele>
   </trkpt>
   <trkpt lat="37.33837000273616" lon="-93.47912665946326">
    <ele>351.77000000000004</ele>
   </trkpt>
   <trkpt lat="37.33789" lon="-93.47856">
    <ele>351.84000000000003</ele>
   </trkpt>
   <trkpt lat="37.337516669664666" lon="-93.47796666082407">
    <ele>351.84000000000003</ele>
   </trkpt>
   <trkpt lat="37.33714333636639" lon="-93.47737332754649">
    <ele>351.57000000000005</ele>
   </trkpt>
   <trkpt lat="37.33677" lon="-93.47678">
    <ele>350.94</ele>
   </trkpt>
   <trkpt lat="37.33623070777787" lon="-93.47594458270288">
    <ele>350.81</ele>
   </trkpt>
   <trkpt lat="37.33569140968193" lon="-93.47510917740192">
    <ele>350.83000000000004</ele>
   </trkpt>
   <trkpt lat="37.335152105712396" lon="-93.47427378409685">
    <ele>351.77000000000004</ele>
   </trkpt>
   <trkpt lat="37.33461279586947" lon="-93.4734384027874">
    <ele>352.44</ele>
   </trkpt>
   <trkpt lat="37.33407348015333" lon="-93.47260303347328">
    <ele>353.61</ele>
   </trkpt>
   <trkpt lat="37.333534158564184" lon="-93.47176767615423">
    <ele>354.37</ele>
   </trkpt>
   <trkpt lat="37.332994831102255" lon="-93.47093233082997">
    <ele>354.71000000000004</ele>
   </trkpt>
   <trkpt lat="37.33245549776771" lon="-93.47009699750019">
    <ele>354.57000000000005</ele>
   </trkpt>
   <trkpt lat="37.33191615856076" lon="-93.46926167616466">
    <ele>354.09000000000003</ele>
   </trkpt>
   <trkpt lat="37.33137681348161" lon="-93.4684263668231">
    <ele>353.61</ele>
   </trkpt>
   <trkpt lat="37.33083746253044" lon="-93.46759106947522">
    <ele>352.85</ele>
   </trkpt>
   <trkpt lat="37.33029810570747" lon="-93.46675578412075">
    <ele>351.53000000000003</ele>
   </trkpt>
   <trkpt lat="37.3297587430129" lon="-93.46592051075942">
    <ele>350.96000000000004</ele>
   </trkpt>
   <trkpt lat="37.329219374446915" lon="-93.46508524939092">
    <ele>351.2</ele>
   </trkpt>
   <trkpt lat="37.328680000000006" lon="-93.46425">
    <ele>352.16</ele>
   </trkpt>
   <trkpt lat="37.32815157292467" lon="-93.46342377642702">
    <ele>353.58</ele>
   </trkpt>
   <trkpt lat="37.32762314010453" lon="-93.46259756447579">
    <ele>354.6</ele>
   </trkpt>
   <trkpt lat="37.3270947015398" lon="-93.46177136414599">
    <ele>355.25</ele>
   </trkpt>
   <trkpt lat="37.32656625723066" lon="-93.4609451754374">
    <ele>355.33000000000004</ele>
   </trkpt>
   <trkpt lat="37.32603780717732" lon="-93.46011899834976">
    <ele>355.25</ele>
   </trkpt>
   <trkpt lat="37.325509351379964" lon="-93.45929283288281">
    <ele>355.11</ele>
   </trkpt>
   <trkpt lat="37.324980889838756" lon="-93.45846667903628">
    <ele>355.18000000000006</ele>
   </trkpt>
   <trkpt lat="37.324452422553925" lon="-93.45764053680992">
    <ele>355.14</ele>
   </trkpt>
   <trkpt lat="37.323923949525636" lon="-93.45681440620346">
    <ele>354.97</ele>
   </trkpt>
   <trkpt lat="37.32339547075408" lon="-93.45598828721666">
    <ele>354.68000000000006</ele>
   </trkpt>
   <trkpt lat="37.32286698623946" lon="-93.45516217984924">
    <ele>355.26</ele>
   </trkpt>
   <trkpt lat="37.32233849598197" lon="-93.45433608410094">
    <ele>356.27000000000004</ele>
   </trkpt>
   <trkpt lat="37.321810000000006" lon="-93.45351000000001">
    <ele>357.08</ele>
   </trkpt>
   <trkpt lat="37.321246470449964" lon="-93.45263491470448">
    <ele>357.40000000000003</ele>
   </trkpt>
   <trkpt lat="37.320682934455995" lon="-93.45175984253237">
    <ele>357.26</ele>
   </trkpt>
   <trkpt lat="37.32011939201833" lon="-93.45088478348332">
    <ele>356.74</ele>
   </trkpt>
   <trkpt lat="37.3195558431372" lon="-93.45000973755705">
    <ele>356.42</ele>
   </trkpt>
   <trkpt lat="37.318992287812826" lon="-93.44913470475323">
    <ele>356.48</ele>
   </trkpt>
   <trkpt lat="37.318428726045454" lon="-93.44825968507156">
    <ele>356.97</ele>
   </trkpt>
   <trkpt lat="37.3178651578353" lon="-93.44738467851172">
    <ele>357.8</ele>
   </trkpt>
   <trkpt lat="37.31730158318259" lon="-93.44650968507338">
    <ele>359.36</ele>
   </trkpt>
   <trkpt lat="37.31673800208756" lon="-93.44563470475623">
    <ele>360.68000000000006</ele>
   </trkpt>
   <trkpt lat="37.31617441455043" lon="-93.44475973755996">
    <ele>361.89000000000004</ele>
   </trkpt>
   <trkpt lat="37.31561082057142" lon="-93.4438847834843">
    <ele>363.04</ele>
   </trkpt>
   <trkpt lat="37.31504722015078" lon="-93.44300984252885">
    <ele>364.2</ele>
   </trkpt>
   <trkpt lat="37.31448361328873" lon="-93.44213491469336">
    <ele>364.66</ele>
   </trkpt>
   <trkpt lat="37.31392" lon="-93.44126000000001">
    <ele>365.48</ele>
   </trkpt>
   <trkpt lat="37.31392" lon="-93.44125000000001">
    <ele>365.48</ele>
   </trkpt>
   <trkpt lat="37.313358560647615" lon="-93.44037887640674">
    <ele>366.83000000000004</ele>
   </trkpt>
   <trkpt lat="37.31279711491" lon="-93.43950776582528">
    <ele>368.31</ele>
   </trkpt>
   <trkpt lat="37.31223566278737" lon="-93.43863666825533">
    <ele>368.83000000000004</ele>
   </trkpt>
   <trkpt lat="37.31167420427998" lon="-93.43776558369657">
    <ele>369.19</ele>
   </trkpt>
   <trkpt lat="37.31111273938804" lon="-93.43689451214868">
    <ele>369.20000000000005</ele>
   </trkpt>
   <trkpt lat="37.31055126811178" lon="-93.4360234536114">
    <ele>370.28000000000003</ele>
   </trkpt>
   <trkpt lat="37.30998979045142" lon="-93.43515240808433">
    <ele>371.6</ele>
   </trkpt>
   <trkpt lat="37.30942830640717" lon="-93.43428137556725">
    <ele>372.15000000000003</ele>
   </trkpt>
   <trkpt lat="37.30886681597929" lon="-93.4334103560598">
    <ele>372.51</ele>
   </trkpt>
   <trkpt lat="37.30830531916798" lon="-93.43253934956165">
    <ele>372.83000000000004</ele>
   </trkpt>
   <trkpt lat="37.30774381597346" lon="-93.43166835607254">
    <ele>373.37</ele>
   </trkpt>
   <trkpt lat="37.30718230639599" lon="-93.43079737559215">
    <ele>374.35</ele>
   </trkpt>
   <trkpt lat="37.30662079043575" lon="-93.42992640812011">
    <ele>375.72</ele>
   </trkpt>
   <trkpt lat="37.306059268093" lon="-93.42905545365619">
    <ele>376.22</ele>
   </trkpt>
   <trkpt lat="37.30549773936796" lon="-93.42818451220005">
    <ele>377.17</ele>
   </trkpt>
   <trkpt lat="37.30493620426083" lon="-93.42731358375134">
    <ele>377.42</ele>
   </trkpt>
   <trkpt lat="37.304374662771856" lon="-93.42644266830979">
    <ele>376.51</ele>
   </trkpt>
   <trkpt lat="37.30381311490126" lon="-93.4255717658751">
    <ele>375.59000000000003</ele>
   </trkpt>
   <trkpt lat="37.30325156064926" lon="-93.42470087644692">
    <ele>374.42</ele>
   </trkpt>
   <trkpt lat="37.302690000000005" lon="-93.42383000000001">
    <ele>374.81</ele>
   </trkpt>
   <trkpt lat="37.30268" lon="-93.42383000000001">
    <ele>374.81</ele>
   </trkpt>
   <trkpt lat="37.302510000000005" lon="-93.42385">
    <ele>374.71000000000004</ele>
   </trkpt>
   <trkpt lat="37.30190499998902" lon="-93.42387000016133">
    <ele>373.89000000000004</ele>
   </trkpt>
   <trkpt lat="37.301300000000005" lon="-93.42389000000001">
    <ele>371.97</ele>
   </trkpt>
   <trkpt lat="37.301210000000005" lon="-93.42389000000001">
    <ele>371.75</ele>
   </trkpt>
   <trkpt lat="37.30123000220877" lon="-93.42461499972062">
    <ele>371.54</ele>
   </trkpt>
   <trkpt lat="37.30125" lon="-93.42534">
    <ele>370.87</ele>
   </trkpt>
   <trkpt lat="37.30125" lon="-93.42533">
    <ele>370.89000000000004</ele>
   </trkpt>
   <trkpt lat="37.301770000000005" lon="-93.42533">
    <ele>370.48</ele>
   </trkpt>
   <trkpt lat="37.302220000000005" lon="-93.42527000000001">
    <ele>371.20000000000005</ele>
   </trkpt>
   <trkpt lat="37.302200000000006" lon="-93.42528">
    <ele>371.20000000000005</ele>
   </trkpt>
   <trkpt lat="37.301770000000005" lon="-93.42533">
    <ele>370.48</ele>
   </trkpt>
   <trkpt lat="37.30125" lon="-93.42534">
    <ele>370.89000000000004</ele>
   </trkpt>
   <trkpt lat="37.301230000000004" lon="-93.42471">
    <ele>371.39000000000004</ele>
   </trkpt>
   <trkpt lat="37.301230000000004" lon="-93.42472000000001">
    <ele>371.39000000000004</ele>
   </trkpt>
   <trkpt lat="37.301210000000005" lon="-93.42389000000001">
    <ele>371.75</ele>
   </trkpt>
   <trkpt lat="37.30185999979758" lon="-93.42387000017914">
    <ele>373.89000000000004</ele>
   </trkpt>
   <trkpt lat="37.302510000000005" lon="-93.42385">
    <ele>374.71000000000004</ele>
   </trkpt>
   <trkpt lat="37.302690000000005" lon="-93.42383000000001">
    <ele>374.82000000000005</ele>
   </trkpt>
   <trkpt lat="37.30256" lon="-93.42361000000001">
    <ele>375.06</ele>
   </trkpt>
   <trkpt lat="37.30205500255302" lon="-93.42282499466775">
    <ele>375.44000000000005</ele>
   </trkpt>
   <trkpt lat="37.301550000000006" lon="-93.42204000000001">
    <ele>375.89000000000004</ele>
   </trkpt>
   <trkpt lat="37.301550000000006" lon="-93.42203">
    <ele>375.89000000000004</ele>
   </trkpt>
   <trkpt lat="37.30115000159696" lon="-93.42139999653483">
    <ele>376.38000000000005</ele>
   </trkpt>
   <trkpt lat="37.30075" lon="-93.42077">
    <ele>376.44000000000005</ele>
   </trkpt>
   <trkpt lat="37.30053" lon="-93.42046">
    <ele>376.47</ele>
   </trkpt>
   <trkpt lat="37.29998000306935" lon="-93.41959999364558">
    <ele>376.73</ele>
   </trkpt>
   <trkpt lat="37.29943" lon="-93.41874000000001">
    <ele>377.47</ele>
   </trkpt>
   <trkpt lat="37.29891626854983" lon="-93.41794621204515">
    <ele>377.74</ele>
   </trkpt>
   <trkpt lat="37.29840253179857" lon="-93.41715243493374">
    <ele>377.23</ele>
   </trkpt>
   <trkpt lat="37.297888789746395" lon="-93.41635866866561">
    <ele>376.16</ele>
   </trkpt>
   <trkpt lat="37.297375042393455" lon="-93.41556491324047">
    <ele>375.59000000000003</ele>
   </trkpt>
   <trkpt lat="37.29686128973992" lon="-93.4147711686581">
    <ele>374.62</ele>
   </trkpt>
   <trkpt lat="37.29634753178598" lon="-93.41397743491827">
    <ele>374.04</ele>
   </trkpt>
   <trkpt lat="37.295833768531786" lon="-93.41318371202073">
    <ele>373.75</ele>
   </trkpt>
   <trkpt lat="37.295320000000004" lon="-93.41239">
    <ele>374.04</ele>
   </trkpt>
   <trkpt lat="37.29482000792923" lon="-93.41159748420328">
    <ele>374.57</ele>
   </trkpt>
   <trkpt lat="37.29432001057454" lon="-93.41080497894158">
    <ele>374.85</ele>
   </trkpt>
   <trkpt lat="37.2938200079361" lon="-93.41001248421466">
    <ele>374.34</ele>
   </trkpt>
   <trkpt lat="37.29332" lon="-93.40922">
    <ele>373.73</ele>
   </trkpt>
   <trkpt lat="37.292950001203764" lon="-93.40866999719293">
    <ele>372.64000000000004</ele>
   </trkpt>
   <trkpt lat="37.29258" lon="-93.40812000000001">
    <ele>371.08000000000004</ele>
   </trkpt>
   <trkpt lat="37.29226500084362" lon="-93.40765999800615">
    <ele>371.13</ele>
   </trkpt>
   <trkpt lat="37.29195" lon="-93.4072">
    <ele>371.03000000000003</ele>
   </trkpt>
   <trkpt lat="37.2914" lon="-93.40650000000001">
    <ele>370.9</ele>
   </trkpt>
   <trkpt lat="37.29086" lon="-93.4059">
    <ele>371.71000000000004</ele>
   </trkpt>
   <trkpt lat="37.29019000195198" lon="-93.40522999409741">
    <ele>372.66</ele>
   </trkpt>
   <trkpt lat="37.28952" lon="-93.40456">
    <ele>374.33000000000004</ele>
   </trkpt>
   <trkpt lat="37.28880834048929" lon="-93.40397663907996">
    <ele>375.63</ele>
   </trkpt>
   <trkpt lat="37.28809667811581" lon="-93.40339328919502">
    <ele>375.62</ele>
   </trkpt>
   <trkpt lat="37.28738501287967" lon="-93.40280995034473">
    <ele>375.15000000000003</ele>
   </trkpt>
   <trkpt lat="37.28667334478102" lon="-93.40222662252863">
    <ele>373.92</ele>
   </trkpt>
   <trkpt lat="37.285961673819976" lon="-93.4016433057463">
    <ele>373.09000000000003</ele>
   </trkpt>
   <trkpt lat="37.285250000000005" lon="-93.40106">
    <ele>371.8</ele>
   </trkpt>
   <trkpt lat="37.2845533484973" lon="-93.4004874417032">
    <ele>371.05</ele>
   </trkpt>
   <trkpt lat="37.28385669423699" lon="-93.39991489400713">
    <ele>371.1700000000001</ele>
   </trkpt>
   <trkpt lat="37.28316003721917" lon="-93.39934235691133">
    <ele>371.38000000000005</ele>
   </trkpt>
   <trkpt lat="37.28246337744397" lon="-93.39876983041542">
    <ele>371.42</ele>
   </trkpt>
   <trkpt lat="37.28176671491152" lon="-93.39819731451894">
    <ele>370.70000000000005</ele>
   </trkpt>
   <trkpt lat="37.28107004962194" lon="-93.39762480922151">
    <ele>370.06000000000006</ele>
   </trkpt>
   <trkpt lat="37.28037338157534" lon="-93.39705231452267">
    <ele>369.99</ele>
   </trkpt>
   <trkpt lat="37.27967671077183" lon="-93.39647983042205">
    <ele>370.84</ele>
   </trkpt>
   <trkpt lat="37.278980037211554" lon="-93.39590735691915">
    <ele>372.20000000000005</ele>
   </trkpt>
   <trkpt lat="37.27828336089464" lon="-93.39533489401362">
    <ele>373.1700000000001</ele>
   </trkpt>
   <trkpt lat="37.277586681821184" lon="-93.394762441705">
    <ele>374.71000000000004</ele>
   </trkpt>
   <trkpt lat="37.27689" lon="-93.39419000000001">
    <ele>376.12</ele>
   </trkpt>
   <trkpt lat="37.276164020684014" lon="-93.39359725331752">
    <ele>376.67</ele>
   </trkpt>
   <trkpt lat="37.275438038412766" lon="-93.39300451806807">
    <ele>378.57</ele>
   </trkpt>
   <trkpt lat="37.27471205318638" lon="-93.39241179425117">
    <ele>378.74</ele>
   </trkpt>
   <trkpt lat="37.27398606500498" lon="-93.39181908186634">
    <ele>379.51</ele>
   </trkpt>
   <trkpt lat="37.27326007386873" lon="-93.39122638091312">
    <ele>380.21000000000004</ele>
   </trkpt>
   <trkpt lat="37.27253407977772" lon="-93.39063369139103">
    <ele>380.85</ele>
   </trkpt>
   <trkpt lat="37.27180808273213" lon="-93.39004101329958">
    <ele>381.62</ele>
   </trkpt>
   <trkpt lat="37.27108208273207" lon="-93.38944834663832">
    <ele>382.70000000000005</ele>
   </trkpt>
   <trkpt lat="37.27035607977766" lon="-93.38885569140676">
    <ele>383.52000000000004</ele>
   </trkpt>
   <trkpt lat="37.269630073869095" lon="-93.38826304760444">
    <ele>383.95</ele>
   </trkpt>
   <trkpt lat="37.26890406500645" lon="-93.38767041523086">
    <ele>383.31000000000006</ele>
   </trkpt>
   <trkpt lat="37.26817805318987" lon="-93.38707779428556">
    <ele>382.41</ele>
   </trkpt>
   <trkpt lat="37.2674520384195" lon="-93.38648518476808">
    <ele>382.03000000000003</ele>
   </trkpt>
   <trkpt lat="37.26672602069548" lon="-93.38589258667793">
    <ele>381.17</ele>
   </trkpt>
   <trkpt lat="37.266000000000005" lon="-93.3853">
    <ele>380.15000000000003</ele>
   </trkpt>
   <trkpt lat="37.26527666959834" lon="-93.38470998866912">
    <ele>378.85</ele>
   </trkpt>
   <trkpt lat="37.264553336268925" lon="-93.38411998867251">
    <ele>378.94000000000005</ele>
   </trkpt>
   <trkpt lat="37.263830000000006" lon="-93.38353000000001">
    <ele>380.35</ele>
   </trkpt>
   <trkpt lat="37.263630000000006" lon="-93.38341000000001">
    <ele>380.91</ele>
   </trkpt>
   <trkpt lat="37.263490000000004" lon="-93.38325">
    <ele>380.97</ele>
   </trkpt>
   <trkpt lat="37.262800005445875" lon="-93.38267997909567">
    <ele>381.55000000000007</ele>
   </trkpt>
   <trkpt lat="37.262110008159105" lon="-93.38210996863596">
    <ele>381.42</ele>
   </trkpt>
   <trkpt lat="37.261420008139794" lon="-93.3815399686205">
    <ele>380.75</ele>
   </trkpt>
   <trkpt lat="37.26073000538805" lon="-93.3809699790489">
    <ele>380.05000000000007</ele>
   </trkpt>
   <trkpt lat="37.260040000000004" lon="-93.38040000000001">
    <ele>380.07</ele>
   </trkpt>
   <trkpt lat="37.25932112264738" lon="-93.37981439973855">
    <ele>380.04</ele>
   </trkpt>
   <trkpt lat="37.258602242410774" lon="-93.37922881065496">
    <ele>380.12</ele>
   </trkpt>
   <trkpt lat="37.25788335929033" lon="-93.3786432327488">
    <ele>380.81</ele>
   </trkpt>
   <trkpt lat="37.25716447328618" lon="-93.37805766601957">
    <ele>381.65000000000003</ele>
   </trkpt>
   <trkpt lat="37.25644558439844" lon="-93.37747211046683">
    <ele>382.88000000000005</ele>
   </trkpt>
   <trkpt lat="37.25572669262725" lon="-93.37688656609012">
    <ele>383.86</ele>
   </trkpt>
   <trkpt lat="37.25500779797273" lon="-93.376301032889">
    <ele>385.09000000000003</ele>
   </trkpt>
   <trkpt lat="37.25428890043502" lon="-93.37571551086297">
    <ele>386.14000000000004</ele>
   </trkpt>
   <trkpt lat="37.25357" lon="-93.37513000000001">
    <ele>387.39</ele>
   </trkpt>
   <trkpt lat="37.252856673950475" lon="-93.37454163882055">
    <ele>388.18</ele>
   </trkpt>
   <trkpt lat="37.25214334498989" lon="-93.37395328878232">
    <ele>389.35</ele>
   </trkpt>
   <trkpt lat="37.25143001311837" lon="-93.37336494988486">
    <ele>389.36</ele>
   </trkpt>
   <trkpt lat="37.250716678336076" lon="-93.37277662212776">
    <ele>388.41</ele>
   </trkpt>
   <trkpt lat="37.25000334064313" lon="-93.3721883055105">
    <ele>387.37000000000006</ele>
   </trkpt>
   <trkpt lat="37.24929" lon="-93.3716">
    <ele>386.02000000000004</ele>
   </trkpt>
   <trkpt lat="37.248920000000005" lon="-93.37134">
    <ele>385.93000000000006</ele>
   </trkpt>
   <trkpt lat="37.248565000558344" lon="-93.3709649981985">
    <ele>386.01</ele>
   </trkpt>
   <trkpt lat="37.24821" lon="-93.37059">
    <ele>386.33</ele>
   </trkpt>
   <trkpt lat="37.24776" lon="-93.37008">
    <ele>386.5</ele>
   </trkpt>
   <trkpt lat="37.24744500083158" lon="-93.3695999977845">
    <ele>387.02000000000004</ele>
   </trkpt>
   <trkpt lat="37.247130000000006" lon="-93.36912000000001">
    <ele>387.45</ele>
   </trkpt>
   <trkpt lat="37.24683" lon="-93.36856">
    <ele>387.51</ele>
   </trkpt>
   <trkpt lat="37.2466" lon="-93.36807">
    <ele>388.33</ele>
   </trkpt>
   <trkpt lat="37.24638000116048" lon="-93.36752999826263">
    <ele>388.43000000000006</ele>
   </trkpt>
   <trkpt lat="37.24616" lon="-93.36699">
    <ele>388.37000000000006</ele>
   </trkpt>
   <trkpt lat="37.245900000000006" lon="-93.36632">
    <ele>387.97</ele>
   </trkpt>
   <trkpt lat="37.24573" lon="-93.3661">
    <ele>387.29</ele>
   </trkpt>
   <trkpt lat="37.24555" lon="-93.36578">
    <ele>387.31000000000006</ele>
   </trkpt>
   <trkpt lat="37.245520000000006" lon="-93.36549000000001">
    <ele>387.28000000000003</ele>
   </trkpt>
   <trkpt lat="37.245380000000004" lon="-93.36493">
    <ele>387.47</ele>
   </trkpt>
   <trkpt lat="37.24503000713105" lon="-93.36400999149078">
    <ele>387.01</ele>
   </trkpt>
   <trkpt lat="37.24468000714477" lon="-93.36308999152699">
    <ele>386.59000000000003</ele>
   </trkpt>
   <trkpt lat="37.244330000000005" lon="-93.36217">
    <ele>386.56</ele>
   </trkpt>
   <trkpt lat="37.24432" lon="-93.36217">
    <ele>386.56</ele>
   </trkpt>
   <trkpt lat="37.24397168445825" lon="-93.36124997873532">
    <ele>386.89</ele>
   </trkpt>
   <trkpt lat="37.24362336179905" lon="-93.36032996597493">
    <ele>387.58000000000004</ele>
   </trkpt>
   <trkpt lat="37.24327503202257" lon="-93.35940996171881">
    <ele>387.37000000000006</ele>
   </trkpt>
   <trkpt lat="37.24292669512895" lon="-93.35848996596695">
    <ele>387.29</ele>
   </trkpt>
   <trkpt lat="37.24257835111834" lon="-93.35756997871935">
    <ele>388.01</ele>
   </trkpt>
   <trkpt lat="37.242230000000006" lon="-93.35665">
    <ele>388.70000000000005</ele>
   </trkpt>
   <trkpt lat="37.242180000000005" lon="-93.35652">
    <ele>388.82000000000005</ele>
   </trkpt>
   <trkpt lat="37.242090000000005" lon="-93.35650000000001">
    <ele>388.82000000000005</ele>
   </trkpt>
   <trkpt lat="37.242000000000004" lon="-93.35625">
    <ele>389.37000000000006</ele>
   </trkpt>
  </trkseg>
 </trk>
</gpx>
